Nombre,Direccion,Latitud,Longitud
3A. COMISARÍA DE ALTO HOSPICIO,"Avenida Los Aromos 3961, 1130000 Alto Hospicio, Tarapacá Region, Chile",-20.2736064,-70.0935357
1A. COMISARÍA DE IQUIQUE,"Libertador Bernardo O'Higgins 427, 1100000 Iquique, Tarapacá Region, Chile",-20.218680307984943,-70.15090586658795
RETEN RIO LOA M.A.,"Ruta 1, Iquique, Tarapacá Region, Chile",-21.424594937909877,-70.05671752593582
RETEN CHANAVAYITA (M.C.),"Pasaje Lobo de Mar KM 356, 1130000 Iquique, Tarapacá Region, Chile",-20.705016495136118,-70.1870460938427
TENENCIA DE CARRETERAS IQUIQUE,"Ruta 5 Norte, 1130000 Huara, Tarapacá Region, Chile",-19.997810246595765,-69.76652040906129
4A. COMISARÍA CAVANCHA,"Avenida Salvador Allende Gossens 2734, 1110649 Iquique, Tarapacá Region, Chile",-20.2363776,-70.1366133
5TA COMISARIA CONTROL ORDEN PUBLICO,"Pedro Lagos 1047, 1100986 Iquique, Tarapacá Region, Chile",-20.2164301,-70.1546588
2A. COMISARÍA POZO ALMONTE,"Avenida Comercio 652, 1130000 Pozo Almonte, Tarapacá Region, Chile",-20.255906709576564,-69.78613222256672
RETEN LA TIRANA,"Nueve Oriente, 1130000 Pozo Almonte, Tarapacá Region, Chile",-20.3348876,-69.6591788
RETEN MAMIÑA,"Ruta A-653 698, 1130000 Pozo Almonte, Tarapacá Region, Chile",-20.070690731247947,-69.21728503418569
RETEN QUILLAGUA,"Ruta 5 Norte, María Elena, Antofagasta Region, Chile",-21.62786706874006,-69.55115740537906
SUBCOMISARÍA I.A.T. IQUIQUE,"Ruta 5 Norte, 1130000 Huara, Tarapacá Region, Chile",-19.99576,-69.767446
RETEN PISAGUA,"Esmeralda 16, 1100000 Huara, Tarapacá Region, Chile",-19.595955611874366,-70.21082440083063
TENENCIA HUARA M/C,"Ruta 15 CH, 1130000 Huara, Tarapacá Region, Chile",-19.99564352253759,-69.76710766137694
RETEN CAMIÑA,"Arturo Prat, 1100000 Camiña, Tarapacá Region, Chile",-19.31272835211891,-69.4272213319066
RETEN CANCOSA (F),"Baquedano 36, 1130000 Pica, Tarapacá Region, Chile",-19.854682332648796,-68.60157673313523
TENENCIA PICA,"27 de Abril, 1130000 Pica, Tarapacá Region, Chile",-20.496798714421914,-69.33736446281603
TENENCIA UJINA,"Ruta A-687, Pica, Tarapacá Region, Chile",-20.708080558,-68.69484111700001
SUBCOMISARÍA COLCHANE (F),"Avenida Teniente González, 1130000 Colchane, Tarapacá Region, Chile",-19.276382611536338,-68.63794927041636
2A. COMISARÍA ANTOFAGASTA,"Montegrande 521, 1240788 Antofagasta, Antofagasta Region, Chile",-23.61614006932415,-70.38303925714717
3A. COMISARÍA DE ANTOFAGASTA,"Baquedano 452, 1271523 Antofagasta, Antofagasta Region, Chile",-23.648300116306032,-70.398916661091
SUBCOMISARÍA PLAYA BLANCA,"Avenida República de Croacia 1096, 1270000 Antofagasta, Antofagasta Region, Chile",-23.681036667853228,-70.41351532487738
RETEN SOCOMPA (F),"Ruta B-55, Antofagasta, Antofagasta Region, Chile",-24.4503447,-68.29073679999999
SUBCOMISARÍA ANTOFAGASTA NORTE,"Julio Montt Salamanca 980, 1265572 Antofagasta, Antofagasta Region, Chile",-23.581829481314006,-70.38042108585671
5A. COMISARÍA LA PORTADA,"Avenida Rica Aventura 11878, 1260000 Antofagasta, Antofagasta Region, Chile",-23.5498465,-70.39622959999997
1A. COMISARÍA DE CALAMA ,"2490, 1390000 Calama, Antofagasta Region, Chile",-22.4565302683071,-68.92963161185622
RETEN INACALIRI (F),"Acceso a Inacalari, 1390000 Calama, Antofagasta Region, Chile",-22.0282084,-68.06681889999999
RETEN TOCONCE (F),"Acceso a Toconce, 139 Calama, Antofagasta Region, Chile",-22.264459,-68.1662513
RETEN TOCONAO (F),"Avenida Norte, 1390000 San Pedro de Atacama, Antofagasta Region, Chile",-23.18597632924906,-68.00554799166957
RETEN TOCORPURI (F),"Camino a Tocorpuri, 1390000 San Pedro de Atacama, Antofagasta Region, Chile",-22.4976578,-68.05805279999998
2A. COMISARÍA DE SAN PEDRO DE ATACAMA (F) ,"Vilama 245, 1390000 San Pedro de Atacama, Antofagasta Region, Chile",-22.910563265566616,-68.2005629167013
RETEN SOCAIRE (T. F.),"Ruta 23 CH, 1390000 San Pedro de Atacama, Antofagasta Region, Chile",-23.8255437,-67.4419555
RetÃ©n El Laco (F),"Teatinos 40, 8340687 Santiago, Santiago Metropolitan Region, Chile",-33.4428842,-70.6538357
1A. COMISARÍA TALTAL,"Sargento Aldea 502, 1270000 Taltal, Antofagasta Region, Chile",-25.410494273718786,-70.4845168842017
RETEN ALEMANIA (M.C.),"Ruta 5 Norte, Taltal, Antofagasta Region, Chile",-25.407574649522115,-69.97337047953607
4A. COMISARÍA DE TOCOPILLA,"21 de Mayo 1666, 1390000 Tocopilla, Antofagasta Region, Chile",-22.09294632168191,-70.20042876163399
RETEN ASCOTAN (F),"Ruta 21 CH, Ollagüe, Antofagasta Region, Chile",-21.725182481957926,-68.27552705522538
TENENCIA OLLAGÜE (F),"Avenida Antofagasta, 1390000 Ollagüe, Antofagasta Region, Chile",-21.2234728,-68.2519757
TENENCIA MEJILLONES,"Ignacio Riquelme 846, 1260000 Mejillones, Antofagasta Region, Chile",-23.101008910023584,-70.44525786941313
TENENCIA MARIA ELENA (M.C),"Sargento Rebolledo 269, 1390000 María Elena, Antofagasta Region, Chile",-22.344475079911597,-69.65808587394315
1A. COMISARIA CHAÑARAL,"Maipú 640, 1530000 Chañaral, Atacama Region, Chile",-26.347439041340152,-70.62170034125347
RETEN EL SALADO,"Pedro Lujan 797, 1530000 Chañaral, Atacama Region, Chile",-26.422086774146678,-70.31696439773094
2A. COMISARIA COPIAPO,"José Joaquín Vallejos 405, 1530662 Copiapó, Atacama Region, Chile",-27.36775229256876,-70.33140899820484
III ZONA DE CARABINEROS DE ATACAMA,"Avenida Copayapu 1481, 1530296 Copiapó, Atacama Region, Chile",-27.3753342,-70.3249508
PREFECTURA DE CARABINEROS ATACAMA N 5,"Bernardo O'Higgins 767, 1530662 Copiapó, Atacama Region, Chile",-27.3678602,-70.3315127
RETEN LAGUNA VERDE MARICUNGA (F),"Ruta 31 CH, Copiapó, Atacama Region, Chile",-26.893556829875696,-68.47009623439328
RETEN PAIPOTE,"Pedro Aguirre Cerda 1080, 1530000 Copiapó, Atacama Region, Chile",-27.41342342867123,-70.27158114831042
SUBCOMISARÍA PEDRO LEON GALLO,"Los Loros 390, 1530000 Copiapó, Atacama Region, Chile",-27.36826275403082,-70.31194160859832
TENENCIA CARRETERA ATACAMA NORTE,"Ruta 5 Norte 846, Copiapó, Atacama Region, Chile",-27.34925078,-70.68287255
SUBCOMISARIA (C.O.P),"Avenida Copayapu 3302, 1534784 Copiapó, Atacama Region, Chile",-27.3906254,-70.3112931
2DA COMISARIA COPIAPO,"Bernardo O'Higgins 767, 1530662 Copiapó, Atacama Region, Chile",-27.3677729,-70.331516
4A. COMISARÍA EL SALVADOR,"Avenida Potrerillos Sur 2504, 1530000 Diego de Almagro, Atacama Region, Chile",-26.24895866746414,-69.62592260185244
RETEN INCA DE ORO,"Arturo Prat 3004, 1530000 Diego de Almagro, Atacama Region, Chile",-26.7532995,-69.9056205
SUBCOMISARÍA DIEGO DE ALMAGRO,"Juan Martínez de Rozas 18, 1530000 Diego de Almagro, Atacama Region, Chile",-26.391998670241758,-70.04700381945906
3A COMISARÍA DE VALLENAR,"Serrano 1196, 1611386 Vallenar, Atacama Region, Chile",-28.578085,-70.75840340000002
RETEN ALFREDO ROZAS BUGUEÑO,"Martín González 1745, 1611529 Vallenar, Atacama Region, Chile",-28.576547715738588,-70.75003508119437
RETEN DOMEYKO,"Gabriela Mistral 690, 1730000 Vallenar, Atacama Region, Chile",-28.955320781011565,-70.89561754318322
TENENCIA CARRETERA ATACAMA SUR,"KM 656, 1530000 Vallenar, Atacama Region, Chile",-28.573381086212397,-70.78537964227405
TENENCIA FREIRINA,"Río de Janeiro 861, 1630159 Freirina, Atacama Region, Chile",-28.50864619787936,-71.07885403334592
SUBCOMISARÍA HUASCO (M),"Arturo Prat 98, 1730000 Huasco, Atacama Region, Chile",-28.46286076208071,-71.22512640985644
RETEN SACRAMENTO (F),"Ferrocarril, 1530000 Tierra Amarilla, Atacama Region, Chile",-27.830676014169455,-70.10782303527765
SUBCOMISARÍA TIERRA AMARILLA,"Avenida Miguel Lemeur 1, 1530000 Tierra Amarilla, Atacama Region, Chile",-27.46659842533008,-70.26540370292543
SUBCOMISARÍA CALDERA,"Batallón Atacama 307, 1530000 Caldera, Atacama Region, Chile",-27.06960545158917,-70.82044224487396
RETEN CONAY (F),"Ruta C-495, 1730000 Alto del Carmen, Atacama Region, Chile",-28.9735510053248,-70.15390916125989
RETEN EL TRANSITO,"República, 165 Alto del Carmen, Atacama Region, Chile",-28.876755705114814,-70.28009723788597
RETEN SAN FELIX (F),"Manuel Antonio Matta KM 19, 1730000 Alto del Carmen, Atacama Region, Chile",-28.933308958902764,-70.46262937285297
TENENCIA ALTO DEL CARMEN,"Ruta C-489, 1730000 Alto del Carmen, Atacama Region, Chile",-28.754585496877702,-70.48555339279233
2A COMISARÍA DE COQUIMBO,"Tegualda 515, 1780000 Coquimbo, Coquimbo Region, Chile",-29.965973770964787,-71.34514013344472
RETEN GUANAQUEROS,"Avenida Guanaqueros 2380, 1790000 Coquimbo, Coquimbo Region, Chile",-30.19642548983101,-71.42967504017662
TENENCIA LAS ENCINAS,"General Bustamante 655, 1792854 Coquimbo, Coquimbo Region, Chile",-29.974716770670007,-71.32827127632225
TENENCIA PEÑUELAS,"5408, 1800000 La Serena, Coquimbo Region, Chile",-29.948881116520614,-71.28730059128742
SUBCOMISARÍA TIERRAS BLANCAS,"Avenida Talca 528, 1801063 Coquimbo, Coquimbo Region, Chile",-29.961811211673673,-71.25597510539353
TENENCIA COQUIMBO ORIENTE,"Avenida El Sauce 1109, 1791786 Coquimbo, Coquimbo Region, Chile",-29.98820177332511,-71.34124815823179
TENENCIA LA HERRADURA,"Las Gaviotas 186, 1793120 Coquimbo, Coquimbo Region, Chile",-29.986614497299723,-71.36047842375967
TENENCIA TONGOY,"Fundición Norte 107, 1790000 Coquimbo, Coquimbo Region, Chile",-30.25739761749051,-71.49228367449723
RETEN CERRO DEL VIGIA,"Alonso de Ercilla 418, 1780471 Coquimbo, Coquimbo Region, Chile",-29.949660609153305,-71.34620452993772
4A. COMISARÍA DE ILLAPEL,"O'Higgins 189, 2030000 Illapel, Coquimbo Region, Chile",-31.633092996281594,-71.16768338832435
1A COMISARíA LA SERENA,"Cristóbal Colón 720, 1720004 La Serena, Coquimbo Region, Chile",-29.8994795,-71.24631290000002
6A COMISARÍA DE LAS COMPAÑIAS,"México 2401, 1731087 La Serena, Coquimbo Region, Chile",-29.877126772631627,-71.23843755855387
IV ZONA DE CARABS. COQUIMBO,"Cristóbal Colón 674, 1710049 La Serena, Coquimbo Region, Chile",-29.8994895,-71.2469863
PREFECTURA DE CARABINEROS DE COQUIMBO,"Cienfuegos 180, 1720004 La Serena, Coquimbo Region, Chile",-29.8994008677834,-71.24644971796528
SUBCOMISARÍA I.A.T. LA SERENA,"Avenida José Manuel Balmaceda 4660, 1710598 La Serena, Coquimbo Region, Chile",-29.9419782,-71.2639139
SUBCOMISARÍA LA FLORIDA,"Avenida 18 de Septiembre 4117, 1700364 La Serena, Coquimbo Region, Chile",-29.915739103392813,-71.2185165552948
TENENCIA CARRETERA ELQUI,"Ruta 5 Norte, La Serena, Coquimbo Region, Chile",-29.826276986540222,-71.26419368542787
3A. COMISARIA CONTROL ORDEN PUBLICO,"Juan José Latorre 397, 1730000 La Serena, Coquimbo Region, Chile",-29.8786191,-71.2533616
3A. COMISARÍA OVALLE,"Tangue 20, 1840625 Ovalle, Coquimbo Region, Chile",-30.604323847812665,-71.196499951171
TENENCIA CARRETERA LIMARI,"Ruta 5 Norte 5, Ovalle, Coquimbo Region, Chile",-30.579533512069933,-71.4948323042297
RETEN CERRILLOS DE TAMAYA,"Gustavo Zeballos, 1790000 Ovalle, Coquimbo Region, Chile",-30.57918231045844,-71.40879861384946
TENENCIA ASISTENCIAL DE MENORES OVALLE,"Cochrane 608, 1790000 Ovalle, Coquimbo Region, Chile",-30.600679035687254,-71.20758183661792
5A. COMISARÍA VICUÑA,"Condell 28, 1760553 Vicuña, Coquimbo Region, Chile",-30.036877489583844,-70.71011141605788
RETEN EL MOLLE,"Avenida Estadio 120, 1700000 Vicuña, Coquimbo Region, Chile",-29.977968194421937,-70.95206850292595
TENENCIA JUNTAS DEL TORO,"Camino Internacional Gabriela Mistral, Vicuña, Coquimbo Region, Chile",-29.977080313428107,-70.09452654467424
RETEN LA HIGUERA,"Avenida La Paz, 1730000 La Higuera, Coquimbo Region, Chile",-29.510642450611265,-71.20035755373198
TENENCIA ANDACOLLO,"Pedro de Valdivia 12, 1750134 Andacollo, Coquimbo Region, Chile",-30.23387601698522,-71.0818619077732
RETEN COGOTI (F),"Ruta D-781, Combarbalá, Coquimbo Region, Chile",-31.0910336,-70.95473909999998
SUBCOMISARÍA COMBARBALA,"Plaza de Armas 100, 1790000 Combarbalá, Coquimbo Region, Chile",-31.17850168517952,-71.00197309788945
RETEN LA CANELA,"Estanislao Ollarzú 665, 1960018 Canela, Coquimbo Region, Chile",-31.397216162293212,-71.45647684180278
TENENCIA CHOAPA MIXTA CARRETERAS,"Ruta 5 Norte, Canela, Coquimbo Region, Chile",-31.703856401147327,-71.52188666508175
RETEN PICHIDANGUI,"La Raya 73, Los Vilos, Coquimbo Region, Chile",-32.14141662685254,-71.52639033505511
SUBCOMISARÍA LOS VILOS,"Tucapel 599, 2030000 Los Vilos, Coquimbo Region, Chile",-31.91462524841345,-71.51020251185821
RETEN COIRON (F),"18 de Septiembre, 2030000 Salamanca, Coquimbo Region, Chile",-31.9033939,-70.775087
SUBCOMISARÍA SALAMANCA,"O'Higgins 599, 2030000 Salamanca, Coquimbo Region, Chile",-31.779583984947006,-70.96507733671103
TENENCIA PUNITAQUI,"Caupolicán 1150, 1900026 Punitaqui, Coquimbo Region, Chile",-30.833146466086042,-71.25773017031344
RETEN CHAÑARAL ALTO,"Los Libertadores, 188 Monte Patria, Coquimbo Region, Chile",-30.8795374682738,-71.01033249874428
RETEN EL PALQUI,"Galvarino, 1800000 Monte Patria, Coquimbo Region, Chile",-30.768474222830594,-70.94348315326255
RETEN LAS TORTOLAS (F),"Ruta D-557, Monte Patria, Coquimbo Region, Chile",-30.742772602221454,-70.59974802660736
RETEN PEDREGAL (F),"Ruta D-577, Monte Patria, Coquimbo Region, Chile",-30.854423244166544,-70.70956617781923
SUBCOMISARÍA MONTE PATRIA,"Ponio 149, 1800000 Monte Patria, Coquimbo Region, Chile",-30.69628739789293,-70.95884482689314
RETEN TULAHUEN (F),"Ruta D-597, 188 Monte Patria, Coquimbo Region, Chile",-30.964620083246878,-70.76905322671081
3A. COMISARÍA ALGARROBO,"Carabineros de Chile 86, 2710000 Algarrobo, Valparaiso Region, Chile",-33.3653178544013,-71.66910209019841
2A. COMISARÍA DE CARTAGENA,"Avenida Cartagena 735, 2681425 Cartagena, Valparaiso Region, Chile",-33.547694866505566,-71.59786935113505
5A COMISARÍA DE CASABLANCA,"Membrillar 125, 2480454 Casablanca, Valparaiso Region, Chile",-33.3204518739098,-71.40838732436669
RETEN QUINTAY,"Jorge Montt 903, Casablanca, Valparaiso Region, Chile",-33.1964825,-71.6968169
4A. COMISARÍA CONCON,"Manantiales 933, 2511340 Concón, Valparaiso Region, Chile",-32.9290569,-71.51633950000002
6A. COMISARÍA DE ISLA DE PASCUA,"Mataveri 1, 4600000 Easter Island, Valparaiso Region, Chile",-27.16078046615784,-109.43706292209015
TENENCIA ASIST.MENORES ISLA PASCUA,"Mataveri 1, 4600000 Easter Island, Valparaiso Region, Chile",-27.1610888,-109.4368804
7A. COMISARÍA DE LA CALERA,"José Joaquín Pérez 598, 2291066 La Calera, Valparaiso Region, Chile",-32.78429905737931,-71.19062780000002
RETEN LOS MOLLES,"Hermanos de la Costa 368, La Ligua, Valparaiso Region, Chile",-32.23170068544891,-71.50687899510649
RETEN VALLE HERMOSO,"Esmeralda 3555, 2030000 La Ligua, Valparaiso Region, Chile",-32.4428732,-71.19824349999999
1A. COMISARÍA DE LA LIGUA,"Avenida Diego Portales 333, 2030884 La Ligua, Valparaiso Region, Chile",-32.45001322414652,-71.22943695337295
3A. COMISARÍA LIMACHE,"Arturo Prat 5, 2240218 Limache, Valparaiso Region, Chile",-32.98616637623081,-71.27828201755574
PREFECTURA MARGA MARGA,"Arturo Prat 381, 2240273 Limache, Valparaiso Region, Chile",-32.986457,-71.2781475
3A. COMISARÍA LOS ANDES,"Santa Teresita de Los Andes 470, 2100353 Los Andes, Valparaiso Region, Chile",-32.833611695714836,-70.60349500202443
SUBCOMISARÍA LOS LIBERTADORES (F),"Ruta 60 CH, Los Andes, Valparaiso Region, Chile",-32.84566998828999,-70.11909633306578
4A. COMISARÍA QUILLOTA,"Chacabuco 481, 2260476 Quillota, Valparaiso Region, Chile",-32.87837094409517,-71.2489894932541
RETEN LAS CRUZADAS,"Avenida Alfredo Dueñas 230, 2260000 Quillota, Valparaiso Region, Chile",-32.9373216,-71.2751328
2A. COMISARÍA DE QUILPUÉ,"Avenida Alcalde Subercaseaux 1570, 2441319 Quilpué, Valparaiso Region, Chile",-33.055322992313144,-71.43878392394254
TENENCIA EL BELLOTO,"Avenida Ramón Freire 560, 2421436 Quilpué, Valparaiso Region, Chile",-33.04622530578651,-71.4047752576721
1A. COMISARÍA DE SAN ANTONIO,"La Marina 1985, 2662684 San Antonio, Valparaiso Region, Chile",-33.5975251,-71.61230360000002
RETEN CUNCUMEN (M.C.),"Ruta G-800, 2660000 San Antonio, Valparaiso Region, Chile",-33.735903208953474,-71.42187806729885
SUBCOMISARÍA LLO LLEO,"México 275, 2661141 San Antonio, Valparaiso Region, Chile",-33.6108353942988,-71.61815244511098
SUBCOM I.A.T Y CARRETERA SAN FELIPE,"Ruta 5 Norte, 2220000 Llay-Llay, Valparaiso Region, Chile",-32.85188849350094,-70.94078430000002
2A. COMISARÍA DE SAN FELIPE,"Avenida Libertador Bernardo O'Higgins 200, 2171516 San Felipe, Valparaiso Region, Chile",-32.755108005091785,-70.7266637675798
RETEN CURIMON,"Camino del Inca 35, 2172099 San Felipe, Valparaiso Region, Chile",-32.78407951863788,-70.68792660148688
1A. COMISARÍA VALPARAÍSO SUR,"Aguayo 42, 2360298 Valparaíso, Valparaiso Region, Chile",-33.0294080650401,-71.63772579601289
2A. COMISARÍA VALPARAÍSO CENTRAL,"Avenida Colón 1823, 2380464 Valparaíso, Valparaiso Region, Chile",-33.04822024323882,-71.61859432644616
3A. COMISARÍA VALPARAÍSO NORTE,"Guacolda 213, 2350227 Valparaíso, Valparaiso Region, Chile",-33.04327223594619,-71.601226850324
8A. COMISARÍA FLORIDA,"Héctor Calvo 853, 2381665 Valparaíso, Valparaiso Region, Chile",-33.053230862831676,-71.62188679762266
RETEN CABO 1° JUAN CARLOS SILVA TORO,"Colo Colo 20, 2390000 Valparaíso, Valparaiso Region, Chile",-33.056505,-71.55960649999997
RETÉN ISLA ROBINSON CRUSOE (F),"Calle El Sándalo 194, 2600000 Juan Fernández, Valparaiso Region, Chile",-33.63954220638647,-78.83034850118867
RETEN LAGUNA VERDE,"Avenida Principal, 236 Valparaíso, Valparaiso Region, Chile",-33.104450127129155,-71.66822081349181
SUBCOMISARÍA LAS CAÑAS,"Los Alerces 318, 2340726 Valparaíso, Valparaiso Region, Chile",-33.0589509,-71.6072493
RETEN PLACILLA PEÑUELAS,"Avenida Cardenal Samoré 1278, 2372063 Valparaíso, Valparaiso Region, Chile",-33.11464811309181,-71.57647258790928
SUBCOMISARÍA I.A.T. VALPARAISO,"Guacolda 210, 2350224 Valparaíso, Valparaiso Region, Chile",-33.043344,-71.601109
TENENCIA CARRETERA VALPARAISO,"Ruta 68, 2370000 Valparaíso, Valparaiso Region, Chile",-33.14681204229558,-71.56048522156527
TENENCIA CORDILLERA,"General Tupper 147, 2362672 Valparaíso, Valparaiso Region, Chile",-33.043271119694715,-71.63798738845242
TENENCIA OHIGGINS,"Jorge Kenrick 105, 2351654 Valparaíso, Valparaiso Region, Chile",-33.06161997356348,-71.5864906596023
TENENCIA RODELILLO,"Juan Gómez 73, 2351345 Valparaíso, Valparaiso Region, Chile",-33.057756849123585,-71.57697373721675
V ZONA VALPARAÍSO,"Buenos Aires 753, 2380465 Valparaíso, Valparaiso Region, Chile",-33.0489749,-71.6184482
PREFECTURA VALPARAÍSO,"Buenos Aires 750, 2380465 Valparaíso, Valparaiso Region, Chile",-33.04875500297013,-71.61869985332498
7A. COMISARÍA FF.EE. VALPARAÍSO,"José Santos Ossa 86, Valparaíso, Valparaiso Region, Chile",-33.0683372,-71.5765607
SUBCOMISARÍA PLACILLA,"Avenida Cardenal Samoré 1278, 2372063 Valparaíso, Valparaiso Region, Chile",-33.1143909,-71.5767514
9NA. COMISARIA CONGRESO NACIONAL,"Avenida Pedro Montt 2863, 2340111 Valparaíso, Valparaiso Region, Chile",-33.0478544,-71.6055459
6A. COMISARÍA DE VILLA ALEMANA,"Arturo Prat 51, 2470000 Villa Alemana, Valparaiso Region, Chile",-33.04332409969438,-71.37100359641005
1A. COMISARÍA DE VIÑA DEL MAR,"4 Poniente 320, 2520192 Viña del Mar, Valparaiso Region, Chile",-33.01899934043897,-71.5555594754631
5A. COMISARÍA DE VIÑA DEL MAR (S.U.),"Pasaje 14 4, 2560448 Viña del Mar, Valparaiso Region, Chile",-33.023025260410684,-71.51760510006386
RETEN PALACIO PRESIDENCIAL,"Callao 351, 2571462 Viña del Mar, Valparaiso Region, Chile",-33.0211615,-71.5640431
SUBCOMISARÍA GOMEZ CARREÑO,"Cono Sur 5083, 2541168 Viña del Mar, Valparaiso Region, Chile",-32.999460267357186,-71.51867358213957
TENENCIA FORESTAL,"Simón Bolívar 360, 2570020 Viña del Mar, Valparaiso Region, Chile",-33.029591122019546,-71.5438691435989
TENENCIA NUEVA AURORA,"Agua Santa 20, 2581458 Viña del Mar, Valparaiso Region, Chile",-33.04752832723051,-71.56485951391261
TENENCIA RECREO,"18 de Septiembre 298, 2580503 Viña del Mar, Valparaiso Region, Chile",-33.030992961309494,-71.57896834976918
TENENCIA REÑACA,"Bellavista 14810, 2542620 Viña del Mar, Valparaiso Region, Chile",-32.969649782822515,-71.54250079524411
TENENCIA REÑACA ALTO,"Calle Nueve 481, 2550468 Viña del Mar, Valparaiso Region, Chile",-32.99786183853707,-71.48594335800601
RETEN CASAS DE ALICAHUE,"Ruta E-445, 205 Cabildo, Valparaiso Region, Chile",-32.348955947217696,-70.7858335028738
RETEN CHINCOLCO,"Avenida Pedro Montt 1651, 2030000 Petorca, Valparaiso Region, Chile",-32.223666417374,-70.84292506071318
TENENCIA CARRETERAS PETORCA,"Ruta 5 Norte, 2030000 Papudo, Valparaiso Region, Chile",-32.43598003422774,-71.32462167843477
TENENCIA PETORCA,"Silva 695, 2030000 Petorca, Valparaiso Region, Chile",-32.2508997,-70.93098309999999
RETEN LAS VENTANAS,"Avenida Pedro Aldunate Solar 1028, 2500000 Puchuncaví, Valparaiso Region, Chile",-32.743789585701045,-71.48614963079484
RETEN HORCON,"Acceso Norte a Horcón, 2500000 Puchuncaví, Valparaiso Region, Chile",-32.71639316416889,-71.48617850322893
RETEN MAITENCILLO,"Padre Enrique del Río 463, Puchuncaví, Valparaiso Region, Chile",-32.646008434866495,-71.43006546042693
TENENCIA PUCHUNCAVI,"Avenida Presidente Ríos 901, 2500000 Puchuncaví, Valparaiso Region, Chile",-32.71897837782557,-71.40843456488068
SUBCOMISARÍA QUINTERO,"Orione 112, 2490830 Quintero, Valparaiso Region, Chile",-32.78750759738166,-71.52793070844865
TENENCIA SAN ESTEBAN (F),"Avenida Alessandri 791, 2100000 San Esteban, Valparaiso Region, Chile",-32.8009901667534,-70.58167944190268
TENENCIA CALLE LARGA,"Calle Larga 2088, 2100000 Calle Larga, Valparaiso Region, Chile",-32.855843131541654,-70.62684952728
TENENCIA RINCONADA,"San Martín 593, 2100000 Rinconada, Valparaiso Region, Chile",-32.83288868767515,-70.688630046659
TENENCIA CABILDO,"Avenida Humeres 624, 2030000 Cabildo, Valparaiso Region, Chile",-32.4255354097281,-71.06486611557636
RETEN PAPUDO,"Domingo Fernández Concha 541, 2070224 Papudo, Valparaiso Region, Chile",-32.50625291712783,-71.44158677953317
RETEN CACHAGUA,"Quebracho 312, 2060130 Zapallar, Valparaiso Region, Chile",-32.57754510144532,-71.45304940563994
RETEN CATAPILCO,"Balmaceda 123, 2030000 Zapallar, Valparaiso Region, Chile",-32.5675976,-71.2758614
RETEN ZAPALLAR,"Diego Sutil 717, 2060382 Zapallar, Valparaiso Region, Chile",-32.555734016593604,-71.45448778530442
RETEN EL MELON,"Bernardo O'Higgins 24, 2300657 Nogales, Valparaiso Region, Chile",-32.69046065325483,-71.21343870188963
TENENCIA NOGALES,"Pedro Félix Vicuña 611, 2300319 Nogales, Valparaiso Region, Chile",-32.739298132835856,-71.19975236958828
TENENCIA LA CRUZ,"21 de Mayo 2910, 2280231 La Cruz, Valparaiso Region, Chile",-32.84731296722272,-71.23250390776565
TENENCIA OLMUE,"Avenida Adolfo Eastman 2090, 2330000 Olmué, Valparaiso Region, Chile",-32.99837418574382,-71.18764936256059
SUBCOMISARÍA EL QUISCO,"Avenida Isidoro Dubournais 270, 2701870 El Quisco, Valparaiso Region, Chile",-33.39781085344575,-71.69434025026248
TENENCIA EL TABO,"Chacabuco 652, 2690376 El Tabo, Valparaiso Region, Chile",-33.45293701796262,-71.66602930958118
RETEN LAS CRUCES,"Avenida Errázuriz 101, 2701641 El Tabo, Valparaiso Region, Chile",-33.49869252662042,-71.61510131230318
SUBCOMISARÍA DE ROCAS SANTO DOMINGO,"Ruta de la Fruta 287, 2720444 Santo Domingo, Valparaiso Region, Chile",-33.63426655857432,-71.61086007976269
RETEN GUZMANES,"Ruta E-531, 2170000 Putaendo, Valparaiso Region, Chile",-32.582842471879765,-70.73363104151468
RETEN LOS PATOS (F),"Ruta E-525, Putaendo, Valparaiso Region, Chile",-32.50136201938249,-70.58135091974816
RETEN QUEBRADA HERRERA,"Calle Ortiz, 2170000 Putaendo, Valparaiso Region, Chile",-32.69166838289824,-70.74842642589647
TENENCIA PUTAENDO,"San Martín 796, 2190076 Putaendo, Valparaiso Region, Chile",-32.62297403323803,-70.71629476861978
RETEN HIJUELAS,"Cuartel 32, 2310000 Hijuelas, Valparaiso Region, Chile",-32.80218002658343,-71.14409338465578
TENENCIA CARRETERA HIJUELAS,"Ruta 5 Norte, Hijuelas, Valparaiso Region, Chile",-32.80119726469532,-71.15485316983643
TENENCIA CATEMU,"Arturo Prat 91, 2230303 Catemu, Valparaiso Region, Chile",-32.77886171802488,-70.96186403996228
SUBCOMISARÍA LLAY LLAY,"San Francisco 97, 2220200 Llay-Llay, Valparaiso Region, Chile",-32.84229839546314,-70.9552587822044
RETEN PANQUEHUE,"Ruta 60 CH 1158, Panquehue, Valparaiso Region, Chile",-32.7695190470338,-70.8339250424259
SUBCOMISARIA I.A.T. Y CARRETERAS SAN FELIPE,"Ruta 5 Norte, 2220000 Llay-Llay, Valparaiso Region, Chile",-32.851369,-70.940626
TENENCIA SANTA MARIA,"Irarrázaval 182, 2170000 Santa María, Valparaiso Region, Chile",-32.748671328197055,-70.65766649130364
2A. COMISARÍA DE GRANEROS,"Guillermo Berrios 88, 2850000 Graneros, O'Higgins Region, Chile",-34.06972163038543,-70.72359808776582
5A. COMISARÍA DE PEUMO,"José Manuel Balmaceda 289, 3070000 Peumo, O'Higgins Region, Chile",-34.3958562,-71.16882340000001
3A. COMISARÍA DE PICHILEMU,"Bernardo O'Higgins 4, 2720000 Pichilemu, O'Higgins Region, Chile",-34.388559694387716,-72.00219265372374
1A. COMISARÍA RANCAGUA,"Avenida General José de San Martín 181, 2843020 Rancagua, O'Higgins Region, Chile",-34.16695911228562,-70.74556816125454
3A. COMISARÍA RANCAGUA ORIENTE,"Avenida Bombero Domingo Villalobos 549, 2831562 Rancagua, O'Higgins Region, Chile",-34.173544610172414,-70.71134702428941
PREFECTURA CACHAPOAL N° 11,"Oficial Carlos María O'Carrol 609, 2840800 Rancagua, O'Higgins Region, Chile",-34.1710014,-70.7449981
SUCMOMISARÍA DIEGO PORTALES,"Constanza 720, 2830493 Rancagua, O'Higgins Region, Chile",-34.159268558376596,-70.7149285968236
VI ZONA LIBERTADOR BERNARDO O´HIGGINS,"Teniente Coronel José Bernardo Cuevas 679, 2840524 Rancagua, O'Higgins Region, Chile",-34.1685784,-70.7442723
7MA COMISARIA CONTROL ORDEN PUBLICO,"Camino Las Bandurrias 314, 2840000 Requínoa, O'Higgins Region, Chile",-34.2390147,-70.7920264
SUBCOMISARIA IAT RANCAGUA,"Ruta Travesía, 2840000 Coltauco, O'Higgins Region, Chile",-34.2180843,-70.7748104
4A. COMISARÍA DE RENGO,"Balmaceda 290, 2940640 Rengo, O'Higgins Region, Chile",-34.4087059938315,-70.86408361826511
RETEN POPETA,"Ruta H-665, Rengo, O'Higgins Region, Chile",-34.441843612549555,-70.78162757024825
TENENCIA ROSARIO,"Manuel Bulnes 94, 2840000 Rengo, O'Higgins Region, Chile",-34.34478512302322,-70.83665903988117
1A. COMISARIA SAN FERNANDO,"Teniente Hernán Merino Correa 619, 3070000 San Fernando, O'Higgins Region, Chile",-34.58653988297483,-70.98897646587574
PREFECTURA COLCHAGUA N° 12,"Valdivia 635, 3070000 San Fernando, O'Higgins Region, Chile",-34.5865,-70.9893686
RETEN AGUA BUENA,"Ruta I-309, 3070000 San Fernando, O'Higgins Region, Chile",-34.6503549,-70.8527302
RETEN ANGOSTURA,"Calle Angostura 14, San Fernando, O'Higgins Region, Chile",-34.542074805988456,-70.96717066627048
RETEN PUENTE NEGRO (F),"Ruta I-45, 3070000 San Fernando, O'Higgins Region, Chile",-34.684656,-70.8743254
RETEN ROMA,"Ruta I-151, 3070000 San Fernando, O'Higgins Region, Chile",-34.58178740756775,-70.91028507715151
6A. COMISARÍA DE SAN VICENTE,"Germán Riesco 1200, 3070000 San Vicente de Tagua Tagua, O'Higgins Region, Chile",-34.438607907944835,-71.08082286582533
RETEN PUENTE BADEN,"Ciclovía El Tambo, San Vicente de Tagua Tagua, O'Higgins Region, Chile",-34.47752842095328,-70.98002706821256
RETEN ZUÑIGA,"Ruta H-588, 3070000 San Vicente de Tagua Tagua, O'Higgins Region, Chile",-34.362902479738345,-71.09781396475273
2A. COMISARÍA DE SANTA CRUZ,"General del Canto 24, 3340000 Santa Cruz, O'Higgins Region, Chile",-34.64077017592443,-71.36520610510956
RETEN RAPEL DE NAVIDAD,"Ignacio Carrera Pinto 1, 2720000 Navidad, O'Higgins Region, Chile",-33.94165574522226,-71.73643986728814
TENENCIA NAVIDAD,"Juan Montes 254, 2720000 Navidad, O'Higgins Region, Chile",-33.952907896578395,-71.83189581667102
TENENCIA LITUECHE,"Hermanos Carrera 809, 2720000 Litueche, O'Higgins Region, Chile",-34.11719909486428,-71.72689963348392
RETEN CENTRAL RAPEL,"Ruta I-62-G, 2720000 Litueche, O'Higgins Region, Chile",-34.02576713036716,-71.54210611547046
RETEN LLALLAUQUEN,"Ruta H-790, Las Cabras, O'Higgins Region, Chile",-34.2197413,-71.44091320000001
SUBCOMISARÍA LAS CABRAS,"Avenida Las Acacias 930, 3070000 Las Cabras, O'Higgins Region, Chile",-34.29384160782881,-71.31215262678802
TENECIA EL MANZANO,"Avenida El Manzano, 9580000 Las Cabras, O'Higgins Region, Chile",-34.183205856856304,-71.40132890464156
TENENCIA NANCAGUA,"Acacias 115, 3070000 Nancagua, O'Higgins Region, Chile",-34.64991811,-71.20637317
TENENCIA MARCHIHUE,"José Miguel Carrera 1273, 3070000 Marchigüe, O'Higgins Region, Chile",-34.3984431,-71.6189388
RETEN PAREDONES,"Avenida Doctor Moore 21, 3340000 Paredones, O'Higgins Region, Chile",-34.648578530644684,-71.89946461719666
RETEN PEDRO DE ALCANTARA,"Alessandri, 3340000 Paredones, O'Higgins Region, Chile",-34.769635716009404,-71.83721655152056
RETEN LA ESTRELLA,"O'Higgins 134, 2720000 La Estrella, O'Higgins Region, Chile",-34.2050567,-71.6541526
SUBCOMISARÍA SAN FRANCISCO DE MOSTAZAL,"San Guillermo 520, 2850000 Mostazal, O'Higgins Region, Chile",-33.98371989783253,-70.70763855969955
RETEN LA PUNTA,"Conde de la Conquista 150, 2850000 Mostazal, O'Higgins Region, Chile",-34.00129513820102,-70.64673187739231
TENENCIA CODEGUA,"O'Higgins 389, 2850000 Codegua, O'Higgins Region, Chile",-34.039201753414545,-70.66823839975052
RETEN PANGAL (F),"Central Pangal, 291 Machalí, O'Higgins Region, Chile",-34.2389446,-70.44435120000003
SUBCOMISARÍA MACHALI,"Arturo Prat 179, 2911336 Machalí, O'Higgins Region, Chile",-34.1779010866218,-70.65154078923524
TENENCIA COYA,"Pedro Aguirre Cerda 186, 2910000 Machalí, O'Higgins Region, Chile",-34.20812234,-70.53186502
RETEN ALMAHUE VIEJO,"Manuel Rodríguez 272, 3070000 Pichidegua, O'Higgins Region, Chile",-34.412693319423745,-71.23661257588162
TENENCIA PICHIDEGUA,"Avenida Independencia 740, 3070000 Pichidegua, O'Higgins Region, Chile",-34.361042605470296,-71.27899498095093
RETEN IDAHUE,"Ruta H-30, 3070000 Coltauco, O'Higgins Region, Chile",-34.318806324332044,-71.1368044943485
TENENCIA COLTAUCO,"Arturo Prat 366, 3070000 Coltauco, O'Higgins Region, Chile",-34.2878314,-71.08453729999997
RETEN MILLAHUE,"Ruta H-590, Coinco, O'Higgins Region, Chile",-34.30784212432272,-71.02427645337309
TENENCIA COINCO,"Avenida Bernardo O'Higgins 285, 2840000 Coinco, O'Higgins Region, Chile",-34.26756541581556,-70.94986558072151
RETEN GUACARHUE,"Ruta H-56 43, 3070000 Quinta de Tilcoco, O'Higgins Region, Chile",-34.35457408700685,-71.01750737489556
TENENCIA QUINTA TILCOCO,"Manuel Flores 30, 3070000 Quinta de Tilcoco, O'Higgins Region, Chile",-34.3543291923412,-70.96447724957915
RETEN LO MIRANDA,"Avenida Pedro de Miranda 913, 2840000 Doñihue, O'Higgins Region, Chile",-34.1899648,-70.89104420000001
SUBCOMISARÍA DOÑIHUE,"Las Rosas 487, 2840000 Doñihue, O'Higgins Region, Chile",-34.221922320876885,-70.9719950312828
RETEN LOS LIRIOS,"Bernardo O’Higgins 360, 2840000 Requínoa, O'Higgins Region, Chile",-34.22302740346669,-70.78506691779097
SUBCOMISARÍA REQUINOA,"Caupolicán 9, 2840000 Requínoa, O'Higgins Region, Chile",-34.2869187,-70.81945059999998
TENENCIA OLIVAR,"Emilio Redard 133, 2840000 Olivar, O'Higgins Region, Chile",-34.2101946740148,-70.81829357707602
SUBCOMISARÍA CARRETERAS I.A.T. CACHAPOAL,"Camino Termas 18, 2840000 Olivar, O'Higgins Region, Chile",-34.20054328130041,-70.7594131081292
RETEN LOLOL,"El Arrayán 220, 3340000 Lolol, O'Higgins Region, Chile",-34.72450177893909,-71.640439115557
RETEN PUMANQUE,"11 de Septiembre 30, 3340000 Pumanque, O'Higgins Region, Chile",-34.5993867,-71.6528697
RETEN POBLACION,"Barros Luco 400, 3070000 Peralillo, O'Higgins Region, Chile",-34.4523982004266,-71.54857166501233
TENENCIA PERALILLO,"Cardenal Caro 578, 3070000 Peralillo, O'Higgins Region, Chile",-34.47839820998558,-71.47656778650821
RETEN HUIQUE,"Avenida Naranjal 400, 3070000 Palmilla, O'Higgins Region, Chile",-34.522720370372035,-71.37590976627047
TENENCIA CHEPICA,"18 de Septiembre 2314, 3340000 Chépica, O'Higgins Region, Chile",-34.72855735512068,-71.27304710436886
RETEN PLACILLA COLCHAGUA,"Miraflores 27, 3070000 Placilla, O'Higgins Region, Chile",-34.6356513,-71.1202451
SUBCOMISARÍA CHIMBARONGO,"Valentín Letelier 5, 3090000 Chimbarongo, O'Higgins Region, Chile",-34.705415071081404,-71.0406842966213
TENENCIA CARRETERA COLCHAGUA,"Ruta 5 Sur 5, Chimbarongo, O'Higgins Region, Chile",-34.63149145040246,-70.9906411799011
4A. COMISARÍA DE CAUQUENES,"Membrillar 420, 3691072 Cauquenes, Maule Region, Chile",-35.96725549225139,-72.3100727495547
RETEN CORONEL DE MAULE,"Comercio, 3690000 Cauquenes, Maule Region, Chile",-36.05231997404896,-72.45588062883604
RETEN ESTACIÓN CAUQUENES,"Salinas 205, 3690518 Cauquenes, Maule Region, Chile",-35.98415654643571,-72.31099192783967
RETEN POCILLAS,"Arturo Prat, 3690000 Cauquenes, Maule Region, Chile",-36.16134623140191,-72.22895271534424
RETEN QUELLA,"Ruta M-750, 3690000 Cauquenes, Maule Region, Chile",-36.05727454700683,-72.09095693372956
RETEN SAUZAL,"Colegio, 369 Cauquenes, Maule Region, Chile",-35.7210795,-72.1263937
2A. COMISARÍA DE CHANCO,"Abdón Fuentealba 251, 3690000 Chanco, Maule Region, Chile",-35.734423,-72.5344536
2A. COMISARÍA DE CONSTITUCIÓN,"Portales 420, 3560247 Constitución, Maule Region, Chile",-35.33050479107401,-72.41234962367099
RETEN PUTU,"Constitución 230, 3560000 Constitución, Maule Region, Chile",-35.2134611,-72.2845461
RETEN VILLA SANTA OLGA,"Los Castaños 121, 3560000 Constitución, Maule Region, Chile",-35.4508951,-72.2786987
1A. COMISARÍA DE CURICÓ,"Avenida San Martín 610, 3341982 Curicó, Maule Region, Chile",-34.9898924307887,-71.24250371349183
PREFECTURA CURICO,"Avenida San Martín 623, 3341982 Curicó, Maule Region, Chile",-34.9896739,-71.2426539
RETEN LOS NICHES,"Ruta J-65, 3340000 Curicó, Maule Region, Chile",-35.07751806733116,-71.14800773705787
RETEN SARMIENTO,"Camino Principal 890, 3340000 Curicó, Maule Region, Chile",-34.934958579885766,-71.20136202883606
RETEN TUTUQUEN,"Pasaje San Lorenzo 2063, 3344027 Curicó, Maule Region, Chile",-34.97578436629341,-71.26292325963874
SUBCOMISARÍA SANTA FE,"Las Punas 598, 3340097 Curicó, Maule Region, Chile",-34.96564746593318,-71.24366409934657
TENENCIA AGUAS NEGRAS,"Calle Licantén 907, 3346085 Curicó, Maule Region, Chile",-34.99684023401743,-71.24855790131647
TENENCIA POTRERO GRANDE (F),"Ruta J-65, 3380000 Curicó, Maule Region, Chile",-35.203690600564,-71.0752885493244
2A. COMISARÍA DE LICANTÉN,"Mataquito 90, 3460000 Licantén, Maule Region, Chile",-34.9849475,-71.9861333
RETEN ILOCA,"Emilio Hernández, 3560000 Licantén, Maule Region, Chile",-34.9363525,-72.17921839999997
1A. COMISARÍA LINARES,"Manuel Rodríguez 252, 3580000 Linares, Maule Region, Chile",-35.8492306,-71.59870260000002
PREFECTURA LINARES N° 15,"Valentín Letelier 376, 3580000 Linares, Maule Region, Chile",-35.8490797,-71.598646
RETEN ACHIBUENO (F),"Puente Las Sombras, 3580000 Linares, Maule Region, Chile",-36.0866555,-71.38876749999997
RETEN EMBALSE ANCOA,"Ruta L-429, 3580000 Linares, Maule Region, Chile",-35.907166,-71.29026980000003
RETEN PALMILLA,"Palmilla, 3580000 Linares, Maule Region, Chile",-35.8095571,-71.7377909
RETEN VARA GRUESA,"Ruta L-11, 3580000 Linares, Maule Region, Chile",-35.83116788864974,-71.52124643446888
TENENCIA CARRETERA LINARES,"Ruta 5 Sur KM 301, 3580000 Linares, Maule Region, Chile",-35.8412477,-71.6293409
SUBCOMISARÍA SUBOF. CRISTIAN MARTINEZ,"Caupolicán 820, 3580000 Linares, Maule Region, Chile",-35.86564325570736,-71.5930862338189
TENENCIA ORIENTE,"Valentín Letelier 1289, 3580706 Linares, Maule Region, Chile",-35.8513601,-71.5853741
4A. COMISARÍA DE MOLINA ,"Maipú 2030, 3380779 Molina, Maule Region, Chile",-35.11589208042544,-71.28009029629516
RETEN AGUA FRIA (F),"Ruta J-743, 3380000 Molina, Maule Region, Chile",-35.306659832931324,-71.09175964662705
RETEN BUENA PAZ,"Ruta J-741, 3380000 Molina, Maule Region, Chile",-35.1602732,-71.16535199999998
RETEN ENTRE RIOS,"Óscar Commentz 102, 3380000 Molina, Maule Region, Chile",-35.077828648138876,-71.26048794476799
RETEN ITAHUE,"Caletera Ruta 5 Sur, 3380000 Molina, Maule Region, Chile",-35.1385193168193,-71.36352850282913
RETEN LONTUE,"Simón Bolívar 7, 3380116 Molina, Maule Region, Chile",-35.0556906951737,-71.27580587175828
3A. COMISARÍA PARRAL,"San Martín 770, 3630365 Parral, Maule Region, Chile",-36.1444712,-71.8227781
RETEN BULLILEO (F),"Ruta L-735, 3630000 Parral, Maule Region, Chile",-36.2875415,-71.4160836
RETEN CATILLO,"Avenida Diego Portales, 3630000 Parral, Maule Region, Chile",-36.28811089427298,-71.65211022698361
RETEN DIGUA,"Ruta L-751, 3630000 Parral, Maule Region, Chile",-36.2357803,-71.5465197
TENENCIA REINA LUISA,"Victoria 305, 3630000 Parral, Maule Region, Chile",-36.15049392126428,-71.8324723441803
1A. COMISARÍA SAN CLEMENTE,"Alejandro Cruz 349, 3480000 San Clemente, Maule Region, Chile",-35.5360243,-71.48560470000001
RETEN BAJOS DE LIRCAY,"Ruta J-75-K, 3480000 San Clemente, Maule Region, Chile",-35.497242485221314,-71.31708077486877
RETEN LA MINA (F),"Ruta 115 CH, San Clemente, Maule Region, Chile",-35.82475794952917,-70.79445629206543
RETEN LAS LOMAS,"Ruta K-551, San Clemente, Maule Region, Chile",-35.48397074832996,-71.22273459444273
RETEN MARIPOSAS,"Ruta K-579, 3480000 San Clemente, Maule Region, Chile",-35.52991086251843,-71.42153545581971
RETEN PASO NEVADO,"Ruta 115 CH, San Clemente, Maule Region, Chile",-35.7204041,-71.19359096931151
RETEN QUERI,"Camino Queri, 3480000 San Clemente, Maule Region, Chile",-35.59003143998869,-71.43077709814759
5A. COMISARÍA DE SAN JAVIER,"Loncomilla 41, 3470000 San Javier, Maule Region, Chile",-35.59619599835564,-71.73277457694519
RETEN HUERTA DEL MAULE,"Manuel Montt, 3470000 San Javier, Maule Region, Chile",-35.6616977,-71.9448375
RETEN MELOZAL,"Ruta L-32, 3580000 San Javier, Maule Region, Chile",-35.73546206466997,-71.79980528769681
RETEN NIRIVILO,"Cementerio, 3560000 San Javier, Maule Region, Chile",-35.54332811061031,-72.094583709787
RETEN SANTA ANA DE LOS LOBOS,"Ruta L-30-K, 3470000 San Javier, Maule Region, Chile",-35.59095020473495,-71.89837998280336
SUBCOMISARÍA I.A.T. TALCA,"Avenida Bernardo O'Higgins 676, 3460000 Talca, Maule Region, Chile",-35.42145803264964,-71.6665564539781
3A. COMISARÍA DE TALCA (U),"Avenida Bernardo O'Higgins 676, 3460000 Talca, Maule Region, Chile",-35.4214716,-71.66674330000001
4A. COMISARÍA CANCHA RAYADA (S.U),"Calle 17 Norte 1140, 3465837 Talca, Maule Region, Chile",-35.4048771,-71.6531329
PREFECTURA TALCA N° 14,"Avenida Bernardo O'Higgins 567, 3460000 Talca, Maule Region, Chile",-35.4214472,-71.6670731
RETEN EL SAUCE,"Avenida San Miguel, 3480000 Talca, Maule Region, Chile",-35.47908877851025,-71.55243479755325
TENENCIA ABATE MOLINA,"Río Calle Calle 1313, 3472778 Talca, Maule Region, Chile",-35.44311601175096,-71.65956782883609
TENENCIA CARLOS TRUPP,"Avenida Circunvalación 30 Oriente, 3480859 Talca, Maule Region, Chile",-35.44023590030725,-71.63251133290629
TENENCIA LA FLORIDA,"13 Sur 190, 3474088 Talca, Maule Region, Chile",-35.4338956376704,-71.6797231653967
TENENCIA TALCA ORIENTE,"Calle 2 Sur 2149, 3460405 Talca, Maule Region, Chile",-35.42986901644773,-71.6449160219957
VII ZONA DE CARABINEROS MAULE,"Avenida Bernardo O'Higgins 676, 3460000 Talca, Maule Region, Chile",-35.4214804,-71.6666246
SUBCOMISARIA FF.EE TALCA,"Avenida 8 Sur 3010, 3480174 Talca, Maule Region, Chile",-35.44051792332847,-71.63286099817938
RETEN CURANIPE,"Avenida Padre Samuel Jofré KM 3, 3690000 Pelluhue, Maule Region, Chile",-35.8432038,-72.6301747
RETEN PELLUHUE,"Abdón Fuentealba 17, 3690000 Pelluhue, Maule Region, Chile",-35.81193782720974,-72.5734355576721
RETEN LLICO,"Ignacio Carrera Pinto, 3560000 Vichuquén, Maule Region, Chile",-34.76527057951087,-72.07757132913065
RETEN VICHUQUEN,"El Manzano 277, 3560000 Vichuquén, Maule Region, Chile",-34.8786054,-71.99424099999999
RETEN AQUELARRE,"Ruta J-852, 3560000 Vichuquén, Maule Region, Chile",-34.8492319,-72.03889200000003
RETEN HUAQUEN,"Ruta J-76-K, Curepto, Maule Region, Chile",-35.1175978,-71.69038560000001
RETEN SANTA ROSA HUALEMU,"O'Higgins 18, 3380000 Sagrada Familia, Maule Region, Chile",-35.0416047,-71.30763869999998
RETEN VILLA PRAT,"Ruta J-68, 3460000 Sagrada Familia, Maule Region, Chile",-35.0976593,-71.61619280000002
TENENCIA SAGRADA FAMILIA,"Valdivia 705, 3380000 Sagrada Familia, Maule Region, Chile",-34.9993633191278,-71.37883374442168
RETEN LA HUERTA,"Avenida Chiripilco, 3460000 Hualañé, Maule Region, Chile",-35.0903676,-71.6574114
TENENCIA HUALAÑE,"O'Higgins 32, 3460000 Hualañé, Maule Region, Chile",-34.9779022,-71.80104649999998
TENENCIA RAUCO,"Avenida Diego Portales KM 9, 3340000 Rauco, Maule Region, Chile",-34.925164800527675,-71.31655334223831
RETEN LOS QUEÑES (F),"Avenida Ramón Freire, 3340000 Romeral, Maule Region, Chile",-34.9997575,-70.8114768
TENENCIA CARRETERA CURICO,"Ruta 5 Sur, 3340000 Romeral, Maule Region, Chile",-34.939120155774226,-71.17697376190188
TENENCIA ROMERAL,"Pasaje Pilar Pereira 1251, 3340000 Romeral, Maule Region, Chile",-34.96103660944281,-71.1289514823967
RETEN CONVENTO,"Ruta L-551, 3580000 Longaví, Maule Region, Chile",-36.0549383,-71.56560769999999
SUBCOMISARÍA LONGAVI,"1 Sur 384, 3580000 Longaví, Maule Region, Chile",-35.9674463,-71.68376690000002
RETEN COPIHUE,"Avenida Bernardo O'Higgins, 3630000 Retiro, Maule Region, Chile",-36.0897065,-71.79853409999998
RETEN VILLASECA,"Ruta L-600, Retiro, Maule Region, Chile",-35.864591205310276,-71.84213968769683
TENENCIA RETIRO,"Avenida Errázuriz 266, 3630000 Retiro, Maule Region, Chile",-36.0561398,-71.7641559
RETEN EL MELADO (F),"Sendero de Chile, 361 Linares, Maule Region, Chile",-35.8567514,-71.0540924
RETEN SEMILLEROS,"Ruta L-171, 3580000 Yerbas Buenas, Maule Region, Chile",-35.6755188,-71.4691785
TENENCIA COLBUN,"Bernardo O'Higgins 415, 3580000 Colbún, Maule Region, Chile",-35.6965822,-71.40630959999999
RETEN ESTACION VILLA ALEGRE,"Avenida Esperanza 234, 3580000 Villa Alegre, Maule Region, Chile",-35.6944976,-71.67699099999999
RETEN PUTAGAN,"Putagán, 3580000 Villa Alegre, Maule Region, Chile",-35.7660875,-71.6658228
SUBCOMISARÍA VILLA ALEGRE,"Avenida Abate Molina 925, 3580000 Villa Alegre, Maule Region, Chile",-35.68058298315754,-71.74054500603421
RETEN SANTA ANA QUERI,"Ruta L-139, Yerbas Buenas, Maule Region, Chile",-35.6216915,-71.46807239999998
RETEN YERBAS BUENAS,"Avenida Centenario 49, 3600000 Yerbas Buenas, Maule Region, Chile",-35.7494134,-71.58481760000001
RETEN CAMARICO,"Ruta K-31, 3380000 Río Claro, Maule Region, Chile",-35.220444145632165,-71.42376200509534
RETEN EL PORVENIR,"Cruce Ruta 5 - Lontué - Punta Diamante - Cruce Ruta 115 CH (Bajo Perquín), 3380000 Río Claro, Maule Region, Chile",-35.16191359667547,-71.28707593735732
RETEN EL RADAL (F),"Ruta J-755, 3380000 Molina, Maule Region, Chile",-35.4183154791442,-71.04932699319284
TENENCIA RIO CLARO,"Casimiro Sepúlveda, 3380000 Río Claro, Maule Region, Chile",-35.2817764,-71.2578037
RETEN GUALLECO,"Bernardo O'Higgins 1, 3470000 Curepto, Maule Region, Chile",-35.2470502,-71.98204820000001
TENENCIA CUREPTO,"Manuel Rodríguez 14, 3570000 Curepto, Maule Region, Chile",-35.09132183356674,-72.02020522824245
RETEN EMPEDRADO,"General Bueras 275, 3560000 Empedrado, Maule Region, Chile",-35.59086870000001,-72.28113462023771
RETEN BOTALCURA,"Ruta K-260, Pencahue, Maule Region, Chile",-35.28213988054513,-71.77471424662701
RETEN CORINTO,"Capitán Ignacio Carrera Pinto, 3470000 Pencahue, Maule Region, Chile",-35.44312317413531,-71.86935222268448
TENENCIA PENCAHUE,"Fernando Parot Silva, 3470000 Pencahue, Maule Region, Chile",-35.398392361299884,-71.79795450813481
TENENCIA SAN RAFAEL,"Concón 382, 3490000 San Rafael, Maule Region, Chile",-35.3084371,-71.5215075
SUBCOMISARÍA I.A.T. Y CARRETERAS TALCA,"Ruta 5 Sur, San Rafael, Maule Region, Chile",-35.315787066385866,-71.53483667857358
TENENCIA PELARCO,"Catedral 50, 3480000 Pelarco, Maule Region, Chile",-35.3833655,-71.44622759999999
RETEN COLIN,"Ruta K-614, 3470000 Maule, Maule Region, Chile",-35.47115974480329,-71.74660194432118
RETEN SAN JOSE DE DUAO,"Ruta K-635, Maule, Maule Region, Chile",-35.557362,-71.58876190000001
TENENCIA MAULE,"Avenida Balmaceda 140, 3470000 Maule, Maule Region, Chile",-35.5243047,-71.6916582
1A. COMISARÍA DE ARAUCO,"Tucapel 395, 4360756 Arauco, Biobío Region, Chile",-37.24744247329256,-73.32265336352066
RETEN CARAMPANGUE,"Vicente Millán 142, 4210000 Arauco, Biobío Region, Chile",-37.25721740668864,-73.24306729740886
TENENCIA CARRETERA LARAQUETE,"Los Copihues, 4210000 Arauco, Biobío Region, Chile",-37.1674394,-73.1864956
3A. COMISARÍA DE CAÑETE,"Arturo Prat 484, 4390480 Cañete, Biobío Region, Chile",-37.80008040918589,-73.39979466062294
7A.COMISARÍA CHIGUAYANTE,"Bio Bio 495, 4110356 Chiguayante, Biobío Region, Chile",-36.939831602090166,-73.02688596030646
1A. COMISARÍA CONCEPCIÓN,"Obispo Hipólito Salas 329, 4070243 Concepcion, Biobío Region, Chile",-36.83068299803864,-73.05520803683635
2A. COMISARÍA CONCEPCIÓN,"Brasil 1235, 4060813 Concepcion, Biobío Region, Chile",-36.8112597,-73.0508565
PREFECTURA CONCEPCION,"Avenida Jorge Alessandri 9350, Concepcion, Biobío Region, Chile",-36.797657,-73.067789
VIII ZONA DE CARABINEROS BÍO BÍO,"Castellón 893, 4070094 Concepcion, Biobío Region, Chile",-36.8266514,-73.0465041
5A. COMISARÍA FF.EE.,"Avenida Jorge Alessandri 1, 4600000 Concepcion, Biobío Region, Chile",-36.7995469,-73.0690079
4A. COMISARÍA DE CORONEL,"Los Carrera 753, 4201532 Coronel, Biobío Region, Chile",-37.029834677752774,-73.1459797926284
RETEN ISLA SANTA MARIA,"Alonso de Ercilla, 420 Coronel, Biobío Region, Chile",-37.04339088124058,-73.51191385092619
RETEN LO ROJAS,"Pedro Aguirre Cerda 1014, 4201618 Coronel, Biobío Region, Chile",-37.0233563,-73.1680127
SUBCOMISARÍA VILLA MORA,"Héroes de la Concepción 1199, 4200142 Coronel, Biobío Region, Chile",-37.00720002780924,-73.15869205235009
SUBCOMISARÍA LAGUNILLAS CARAB. RODOLFO ORELLANA,"Los Nogales 3412, 4192344 Coronel, Biobío Region, Chile",-36.98154581460846,-73.15806188954923
4A. COMISARÍA DE CURANILAHUE,"Caupolicán 929, 4210000 Curanilahue, Biobío Region, Chile",-37.473522750677546,-73.34358378084926
4A. COMISARÍA DE HUALPÉN,"Bucarest 2485, 4603254 Hualpén, Biobío Region, Chile",-36.7829847,-73.10205659999997
2A. COMISARÍA DE LEBU,"Saavedra 754, 4210000 Lebu, Biobío Region, Chile",-37.61157674951154,-73.65634916627045
PREFECTURA ARAUCO,"Saavedra 754, 4210000 Lebu, Biobío Region, Chile",-37.6116142,-73.6559494
RETEN ISLA MOCHA,"Lebu, Chile",-38.343621,-73.91297989999998
1A. COMISARÍA LOS ÁNGELES,"Avenida Ricardo Vicuña 405, 4441179 Los Ángeles, Biobío Region, Chile",-37.47226721488481,-72.35133676484509
PREFECTURA BIO BIO,"Colón 34, 4441183 Los Ángeles, Biobío Region, Chile",-37.4723157,-72.3511327
SUBCOMISARÍA CABO 1° SEPULVEDA PARRAGUEZ,"Avenida Orompello 3600, 4441075 Los Ángeles, Biobío Region, Chile",-37.4607836,-72.3683769
RETEN EL ALAMO,"Ruta Q-45, 4430000 Los Ángeles, Biobío Region, Chile",-37.432212420209666,-72.18466497486878
RETEN SAN CARLOS DE PUREN,"Avenida San Carlos de Purén 1, 4430000 Los Ángeles, Biobío Region, Chile",-37.5941011616633,-72.277561353399
SUBCOMISARÍA PAILLIHUE,"Avenida Francisco Encina 10, 4431129 Los Ángeles, Biobío Region, Chile",-37.48747486818356,-72.34262454938022
TENENCIA CARRETERA BIO BIO,"Ruta 5 Sur, Los Ángeles, Biobío Region, Chile",-37.545873563169174,-72.30873524351654
TENENCIA CENTENARIO,"Almagro 1475, 4450230 Los Ángeles, Biobío Region, Chile",-37.45671737037127,-72.34518685731035
RETEN SANTA FE,"O'Higgins 138, 4440000 Los Ángeles, Biobío Region, Chile",-37.466317111605626,-72.58334530792985
3A. COMISARÍA DE LOTA,"Senda Peatonal Lota Bajo 1002, 4210000 Lota, Biobío Region, Chile",-37.08859311296949,-73.15983821719664
2A. COMISARÍA DE MULCHÉN,"Salvo 619, 4530002 Mulchén, Biobío Region, Chile",-37.7190238357183,-72.23706743349197
TENENCIA  BIO BIO (F),"Calle Butalelbún, 4430000 Alto Biobío, Biobío Region, Chile",-37.8823502,-71.6362861
3A. COMISARÍA DE NACIMIENTO,"Manuel Bulnes 39, 4650000 Nacimiento, Biobío Region, Chile",-37.501842351345175,-72.66844989942138
3A. COMISARÍA DE PENCO,"O'Higgins 418, 4150291 Penco, Biobío Region, Chile",-36.739556356168116,-72.99373277950377
TENENCIA LIRQUEN,"Avenida Pedro Aguirre Cerda 99, 4070078 Penco, Biobío Region, Chile",-36.71429735403175,-72.97448442029213
6A. COMISARÍA DE SAN PEDRO DE LA PAZ,"Tucapel 635, 4130000 San Pedro de la Paz, Biobío Region, Chile",-36.854433695314,-73.13801099304226
TENENCIA SAN PEDRO DE LA PAZ,"Roncesvalles 55, 4130413 San Pedro de la Paz, Biobío Region, Chile",-36.842289171549396,-73.11328830973332
4A. COMISARÍA DE SANTA BÁRBARA,"Pasaje Serviu 179, 4430000 Santa Bárbara, Biobío Region, Chile",-37.67006973538662,-72.02657288009306
RETEN VILLUCURA,"Ruta Q-605, Santa Bárbara, Biobío Region, Chile",-37.5573116,-71.90773730000001
2A. COMISARÍA DE TALCAHUANO,"Avenida Colón 773, 4270092 Talcahuano, Biobío Region, Chile",-36.71628728316226,-73.10953380387673
PREFECTURA TALCAHUANO,"Avenida Blanco Encalada 720, 4270143 Talcahuano, Biobío Region, Chile",-36.7159635,-73.109207
TENENCIA HIGUERAS,"Avenida Desiderio García 495, 4271565 Talcahuano, Biobío Region, Chile",-36.74660037370823,-73.10148054009642
1A. COMISARÍA DE TOMÉ,"Mariano Egaña 1033, 4161009 Tomé, Biobío Region, Chile",-36.61832856498881,-72.95650515934011
RETEN DICHATO,"Ignacio Serrano 999, 4160000 Tomé, Biobío Region, Chile",-36.547965609834485,-72.93584678786806
RETEN RAFAEL,"O'Higgins 275, 4160000 Tomé, Biobío Region, Chile",-36.63004888516733,-72.79430354349012
RETEN CENTINELA,"Ignacio Carrera Pinto 351, 4580273 Yumbel, Biobío Region, Chile",-37.1431774,-72.53851580000003
RETEN RERE,"Bernardino Abarzúa 280, 4180000 Yumbel, Biobío Region, Chile",-37.13283030704944,-72.72826972109107
RETEN RIO CLARO,"Arturo Prat 315, 4440000 Yumbel, Biobío Region, Chile",-37.198799653851495,-72.61923490631926
5A. COMISARÍA YUMBEL,"General Cruz 600, 4580050 Yumbel, Biobío Region, Chile",-37.10060265867343,-72.56284969207633
RETEN TOMECO,"Balmaceda 302, 4180000 Yumbel, Biobío Region, Chile",-36.98787537551396,-72.62498002638932
RETEN MONTE AGUILA,"Florencio Arrivillaga 25, 4440000 Cabrero, Biobío Region, Chile",-37.0867718,-72.44185340000001
RETEN SALTO DEL LAJA,"Ruta 5 Sur, Cabrero, Biobío Region, Chile",-37.188423831862025,-72.39276360688478
SUBCOMISARÍA CABRERO,"Manuel Palacios 906, 4440000 Cabrero, Biobío Region, Chile",-37.037688470633974,-72.40522196065979
RETEN ANTIHUALA,"Pedro de Valdivia 30, 4210000 Los Álamos, Biobío Region, Chile",-37.67189093910711,-73.3907666892901
SUBCOMISARÏA LOS ALAMOS,"Pedro de Valdivia 313, 4380469 Los Álamos, Biobío Region, Chile",-37.62731728869906,-73.45872528315488
TENENCIA CONTULMO,"Ruta P-60-R, Contulmo, Biobío Region, Chile",-38.00591378551038,-73.22871833843175
SUBCOMISARÍA TIRUA,"Guerrero 5, 4800000 Tirúa, Biobío Region, Chile",-38.3445754,-73.49283109999999
RETEN SAN ROSENDO,"Almirante Latorre 309, 4570000 San Rosendo, Biobío Region, Chile",-37.26349113489869,-72.722688130172
RETEN POLCURA,"Aníbal Pinto 531, 4430000 Tucapel, Biobío Region, Chile",-37.28698785338514,-71.72330409586971
RETEN TRUPAN,"Alejandro Pérez, 4430000 Tucapel, Biobío Region, Chile",-37.27650096597332,-71.83382386591666
RETEN TUCAPEL,"Lautaro 305, 4450000 Tucapel, Biobío Region, Chile",-37.2931105,-71.9515033
TENECIA HUEPIL,"San Francisco 71, 4480065 Tucapel, Biobío Region, Chile",-37.243752736475635,-71.94467483624572
RETEN COPIULEMU,"310, 4180000 Florida, Biobío Region, Chile",-36.89547785526283,-72.80820355759641
TENENCIA FLORIDA,"Carlos Condell 701, 4180000 Florida, Biobío Region, Chile",-36.826442620561785,-72.6608326312828
RETEN QUILACOYA,"Ruta Q-60-O, 4180000 Hualqui, Biobío Region, Chile",-37.0538723046562,-72.9625953581226
RETEN TALCAMAVIDA,"Bernardo O'Higgins, 4180000 Hualqui, Biobío Region, Chile",-37.1623015,-72.9063408
TENENCIA HUALQUI,"Patricio Lynch 501, 4180382 Hualqui, Biobío Region, Chile",-36.97517751674053,-72.94062303512834
SUBCOMISARÍA LAJA,"Balmaceda 541, 4180000 Laja, Biobío Region, Chile",-37.27744201441906,-72.71665552817876
TENENCIA ANTUCO (F),"Los Carrera, 4430000 Antuco, Biobío Region, Chile",-37.32896812761287,-71.65992242179777
RETEN CANTERAS,"Mariano Egaña 241, 4430000 Quilleco, Biobío Region, Chile",-37.4042593,-72.01382890000002
RETEN QUILLECO,"Arturo Prat 398, 4430000 Quilleco, Biobío Region, Chile",-37.4678732,-71.9808198
TENENCIA NEGRETE,"Néstor del Río 290, 4440000 Negrete, Biobío Region, Chile",-37.58519464042805,-72.52735236734645
RETEN LONCOPANGUE,"Ruta Q-705, Quilaco, Biobío Region, Chile",-37.76811512718142,-71.77426268465575
RETEN QUILACO,"Arturo Prat 1280, 4430000 Quilaco, Biobío Region, Chile",-37.68433827627086,-72.0047712963692
RETEN RUCALHUE,"Ruta Q-705, Quilaco, Biobío Region, Chile",-37.7122208,-71.904784
TENENCIA SANTA JUANA,"Lautaro 13, 4180000 Santa Juana, Biobío Region, Chile",-37.17675696772771,-72.93646618656334
TENENCIA BIO BIO (F),"Calle Butalelbún, 4430000 Alto Biobío, Biobío Region, Chile",-37.8823479,-71.63629709999998
1A. COMISARÍA DE ANGOL,"Dieciocho 340, 4650999 Angol, Araucanía Region, Chile",-37.799427097568476,-72.7128323307636
PREFECTURA MALLECO N° 21,"Caupolicán 598, 4650861 Angol, Araucanía Region, Chile",-37.7976595,-72.7133158
2A COMISARIA COLLIPULLI,"O'Higgins 250, 4650000 Collipulli, Araucanía Region, Chile",-37.95784398510937,-72.43297501892891
RETEN CURACO,"Ruta R-49, 4650000 Collipulli, Araucanía Region, Chile",-38.0203138,-72.35540320000001
RETEN ESPERANZA,"Carrera, 4650000 Collipulli, Araucanía Region, Chile",-37.84500902182847,-72.3938043
RETEN MININCO,"Lautaro 96, 4650000 Collipulli, Araucanía Region, Chile",-37.7970288,-72.4701988
5A. COMISARÍA DE CURACAUTÍN,"Arauco 235, 4700594 Curacautín, Araucanía Region, Chile",-38.43871207833346,-71.88326579021304
RETEN MALALCAHUELLO,"Cristóbal Colón 350, 4920000 Curacautín, Araucanía Region, Chile",-38.47404118815594,-71.58187696256562
RETEN MANZANAR,"Los Robles KM 75, 4920000 Curacautín, Araucanía Region, Chile",-38.4667421,-71.7011837
1A COMISARIA DE LAUTARO,"José Miguel Carrera 1094, 4861186 Lautaro, Araucanía Region, Chile",-38.5331492,-72.43986269999999
RETEN DOLLINCO,"Ruta S-11-R, Lautaro, Araucanía Region, Chile",-38.48525146451334,-72.14846456263501
RETEN PILLANLELBUN,"Recabarren 101, 4780000 Lautaro, Araucanía Region, Chile",-38.63425957535737,-72.45141253068846
TENENCIA CARRETERAS CAUTIN NORTE,"Ruta 5 Sur, 4780000 Lautaro, Araucanía Region, Chile",-38.62506337393084,-72.45497444166415
6A COMISARIA DE LONCOCHE,"Avenida Barros Arana 950, 4970828 Loncoche, Araucanía Region, Chile",-39.372238928721266,-72.6354634309248
RETEN HUISCAPI,"451, 4930000 Loncoche, Araucanía Region, Chile",-39.29527734458335,-72.40043240674589
RETEN LA PAZ,"Valparaíso 931, 4930000 Loncoche, Araucanía Region, Chile",-39.4096755,-72.71032489999999
TENENCIA CARRETERA CAUTIN SUR,"Caletera Ruta 5, 497 Loncoche, Araucanía Region, Chile",-39.35595866452942,-72.58354186508177
4A COMISARIA NUEVA IMPERIAL,"Arturo Prat 128, 5020150 Nueva Imperial, Araucanía Region, Chile",-38.74309269365732,-72.95251594886668
3A COMISARIA PADRE LAS CASAS,"Eusebio Lillo 152, 4850769 Padre Las Casas, Araucanía Region, Chile",-38.75825080020949,-72.59285964363283
5A COMISARIA DE PITRUFQUEN,"Gronow 894, 4850000 Pitrufquén, Araucanía Region, Chile",-38.98666338597907,-72.6319387393815
RETEN COMUY,"Camino a Toltén, 4810000 Pitrufquén, Araucanía Region, Chile",-39.024027037601755,-72.96652128954923
9A COMISARIA DE PUCON,"Bernardo O'Higgins 135, 4920479 Pucón, Araucanía Region, Chile",-39.2774174,-71.97775289999998
2A. COMISARÍA DE TEMUCO,"Claro Solar 1284, 4791209 Temuco, Araucanía Region, Chile",-38.7403846033571,-72.58464343464516
8A COMISARIA TEMUCO,"Avenida San Martín 910, 4802343 Temuco, Araucanía Region, Chile",-38.73245211463328,-72.64040337486875
IX ZONA DE CARABINEROS ARAUCANIA,"Claro Solar 1257, 4791122 Temuco, Araucanía Region, Chile",-38.7402509,-72.5847789
PREFECTURA CAUTIN,"Claro Solar 1315, 4790859 Temuco, Araucanía Region, Chile",-38.7404786,-72.5840246
SUBCOMISARÍA I.A.T. ARAUCANÍA,"Pircunche 365, 4790661 Temuco, Araucanía Region, Chile",-38.7340316,-72.5716346
TENENCIA LABRANZA,"1 Norte 65, 4810000 Temuco, Araucanía Region, Chile",-38.76615881091033,-72.75243902208871
TENENCIA FAMILIA E INFANCIA ARAUCANÍA,"Pircunche 365, 4790661 Temuco, Araucanía Region, Chile",-38.7340845,-72.571581
1A COMISARIA FUERZAS ESPECIALES TEMUCO,"Santa Teresa 1295, 4810000 Temuco, Araucanía Region, Chile",-38.7425364,-72.6145395
2A COMISARIA FUERZAS ESPECIALES PAILAHUEQUE,"Ruta 5 Sur, 4650000 Ercilla, Araucanía Region, Chile",-38.1440898,-72.3116811
3A COMISARIA FUERZAS ESPECIALES MALLECO,"Ruta 5 Sur, 4650000 Ercilla, Araucanía Region, Chile",-38.1440898,-72.3116811
3A. COMISARÍA TRAIGUEN,"General Gana 213, 4650000 Traiguén, Araucanía Region, Chile",-38.2436674,-72.66426639999997
RETEN QUILQUEN,"Ruta R-360, 4650000 Traiguén, Araucanía Region, Chile",-38.1098801,-72.7087426
4A COMISARIA VICTORIA,"Sotomayor 385, 4720019 Victoria, Araucanía Region, Chile",-38.23651877104099,-72.3357162625656
RETEN PUA,"Los Eucaliptus, 4780000 Victoria, Araucanía Region, Chile",-38.3365333,-72.37588590000001
RETEN SELVA OSCURA,"Prat 210, 4780000 Victoria, Araucanía Region, Chile",-38.36818631822535,-72.16540003002473
TENENCIA CARRETERA MALLECO,"Ruta 5 Sur, Victoria, Araucanía Region, Chile",-38.272624470291,-72.36491173605901
7A COMISARIA VILLARRICA,"Manuel Antonio Matta 230, 4930423 Villarrica, Araucanía Region, Chile",-39.2783758477405,-72.22659773116618
RETEN LICAN RAY,"General Basilio Urrutia 735, 4930000 Villarrica, Araucanía Region, Chile",-39.48749884577509,-72.16047761858647
SUBCOMISARIA LONQUIMAY (F),"Lautaro 167, 4920000 Lonquimay, Araucanía Region, Chile",-38.453283034427535,-71.37082831918792
RETEN ICALMA (F),"Camino Temuco - Cunco - Paso Icalma, 4920000 Lonquimay, Araucanía Region, Chile",-38.811427420098504,-71.28248108465573
RETEN SIERRA NEVADA,"Ruta 181 CH, 4920000 Lonquimay, Araucanía Region, Chile",-38.56315493623068,-71.47511027056964
RETEN TROYO (F),"Ruta R-791, Lonquimay, Araucanía Region, Chile",-38.25360543767903,-71.30517077605742
TENENCIA LIUCURA (F),"Ruta 181 CH, 4920000 Lonquimay, Araucanía Region, Chile",-38.645289,-71.0904558
RETEN BARROS ARANA,"Dos Sur 115, 4810000 Teodoro Schmidt, Araucanía Region, Chile",-38.9869066,-72.9245608
RETEN HUALPIN,"Manuel Plaza 390, 4810000 Teodoro Schmidt, Araucanía Region, Chile",-39.088072,-73.1808669
RETEN TEODORO SCHMIDT,"Germán Winkel 11, 4810000 Teodoro Schmidt, Araucanía Region, Chile",-38.9939768,-73.0856093
RETEN CAJON,"Alexandro Urrutia 6, 4780000 Vilcún, Araucanía Region, Chile",-38.67765901249471,-72.50539483365952
RETEN CHERQUENCO,"Avenida Constitución, 4780000 Vilcún, Araucanía Region, Chile",-38.68563294313004,-72.00252223372956
RETEN SAN PATRICIO,"Avenida Inglesa 208, 4780000 Vilcún, Araucanía Region, Chile",-38.66101258279444,-72.12198618280331
TENENCIA VILCUN,"Chorrillos 391, 4780000 Vilcún, Araucanía Region, Chile",-38.671162215950254,-72.22481662005146
RETEN CATRIPULLI,"Camino Rinconada, Curarrehue, Araucanía Region, Chile",-39.34805197179037,-71.70619849064906
RETEN REIGOLIL (F),"Ruta S-965, 4910000 Curarrehue, Araucanía Region, Chile",-39.1163909,-71.4741639
TENENCIA CURARREHUE (F),"Héroes de la Concepción 603, 4910000 Curarrehue, Araucanía Region, Chile",-39.35956094490379,-71.58722962613177
RETEN LAS HORTENSIAS,"Avenida Flor, 4930000 Cunco, Araucanía Region, Chile",-38.9408458,-72.1521818
RETEN LOS LAURELES,"Artemio Gutiérrez 94, 4930000 Cunco, Araucanía Region, Chile",-38.990353993854484,-72.24697632693824
SUBCOMISARÍA CUNCO,"Avenida Santa María 130, 4920000 Cunco, Araucanía Region, Chile",-38.9317132,-72.0354744
RETEN LASTARRIA,"Villa Alegre 201, 4930000 Gorbea, Araucanía Region, Chile",-39.2350496,-72.6778248
RETEN QUITRATUE,"Juan Guerra 660, 4850000 Gorbea, Araucanía Region, Chile",-39.1550379,-72.6587513
TENENCIA GORBEA,"Bernardo O'Higgins 209, 4960430 Gorbea, Araucanía Region, Chile",-39.09736040128276,-72.67142925065764
RETEN PICHI-PELLAHUEN,"Camino Pichipellahuen por Huiñilhue, Lumaco, Araucanía Region, Chile",-38.325079267310315,-73.00012822394257
TENENCIA CAPITAN PASTENE,"Pedro Montt 221, 4740272 Lumaco, Araucanía Region, Chile",-38.1896402,-72.9905536
RETEN LUMACO,"Ruta R-90-P, Lumaco, Araucanía Region, Chile",-38.1649672,-72.8923277
RETEN MELIPEUCO (F),"Pedro Aguirre Cerda 200, 4920000 Melipeuco, Araucanía Region, Chile",-38.85533594361651,-71.70066776871721
RETEN NEHUENTUE,"Arauco 380, 4800000 Carahue, Araucanía Region, Chile",-38.7453141,-73.40841290000003
RETEN TROVOLHUE,"Romilio Adriazola 20, 4800000 Carahue, Araucanía Region, Chile",-38.63079412483316,-73.31416472142638
SUBCOMISARÍA CARAHUE,"Ercilla 251, 4800000 Carahue, Araucanía Region, Chile",-38.711157884206585,-73.1684116889549
RETEN PAILAHUEQUE,"Colón, 4650000 Ercilla, Araucanía Region, Chile",-38.1356754,-72.3155519
SUBCOMISARÍA ERCILLA,"Avenida Ercilla 418, 4650000 Ercilla, Araucanía Region, Chile",-38.06458,-72.37905180000001
RETEN PUERTO DOMÍNGUEZ,"Jorge Alessandri, 4810000 Saavedra, Araucanía Region, Chile",-38.8969485,-73.2553378
TENENCIA PUERTO SAAVEDRA,"Avenida Ejército 702, 5000155 Saavedra, Araucanía Region, Chile",-38.7850271,-73.39774319999998
RETEN QUEPE,"Riquelme 72, 4850000 Freire, Araucanía Region, Chile",-38.8671114,-72.6133815
RETEN RADAL,"Arturo Prat, 4850000 Freire, Araucanía Region, Chile",-38.9839897,-72.39240480000001
TENENCIA FREIRE,"Villarrica 283, 4850000 Freire, Araucanía Region, Chile",-38.95139409886875,-72.62393003452223
RETEN QUEULE,"Avda. Costanera, 5110000 Toltén, Araucanía Region, Chile",-39.3977344,-73.2099954
TENENCIA TOLTEN,"José María Caro 564, 5110000 Toltén, Araucanía Region, Chile",-39.1771513,-73.1691247
SUBCOMISARÍA LOS SAUCES,"Barros Arana 180, 4650000 Los Sauces, Araucanía Region, Chile",-37.9811692,-72.83501690000003
TENENCIA GALVARINO,"Manuel Rodríguez 498, 5030008 Galvarino, Araucanía Region, Chile",-38.410756255382594,-72.78296723068848
TENENCIA PUREN,"Contulmo 996, 4650000 Purén, Araucanía Region, Chile",-38.0335822,-73.07040710000001
RETEN TIJERAL,"Santa Elisa, 467 Renaico, Araucanía Region, Chile",-37.7338199,-72.61313200000001
TENENCIA RENAICO,"Avenida Lorenzo de la Maza 71, 4670195 Renaico, Araucanía Region, Chile",-37.6706711,-72.5898432
RETEN CHOLCHOL,"Avenida Arturo Prat 313, 4800000 Cholchol, Araucanía Region, Chile",-38.60198018406883,-72.84620330676938
RETEN PERQUENCO,"San Martín 282, 4780000 Perquenco, Araucanía Region, Chile",-38.419721,-72.37730449999998
1A. COMISARIA DE ANCUD,"Baquedano 370, 5710944 Ancud, Los Lagos Region, Chile",-41.86541702985029,-73.82720488917636
TENENCIA CHACAO,"Alonso de Ercilla 225, 5710000 Ancud, Los Lagos Region, Chile",-41.82959672723442,-73.52496963944907
TENENCIA CHILOE (M.C),"Ruta 5 Sur, 5710000 Ancud, Los Lagos Region, Chile",-42.1413746,-73.72235899999998
4A. COMISARIA CALBUCO,"Galvarino Riveros 70, 5570278 Calbuco, Los Lagos Region, Chile",-41.771923934844736,-73.12783627099282
RETEN ISLA HUAR,"Ruta V-827, 5500000 Calbuco, Los Lagos Region, Chile",-41.66807189828232,-72.9787020232788
RETEN ISLA PULUQUI,"Camino San Ramón - Perhue, 5500000 Calbuco, Los Lagos Region, Chile",-41.7972713820149,-73.0359704465576
2A. COMISARIA DE CASTRO,"Portales 481, 5700000 Castro, Los Lagos Region, Chile",-42.4826120791308,-73.76598453826159
PREFECTURA CHILOE N° 26,"Portales 440, 5700000 Castro, Los Lagos Region, Chile",-42.4828912,-73.7658719
4A. COMISARIA DE CHAITEN (F),"Almirante Riveros 435, 5700000 Chaitén, Los Lagos Region, Chile",-42.916061505675536,-72.70947452404147
RETEN AYACARA (F),"Ruta W-813, Chaitén, Los Lagos Region, Chile",-42.3171505,-72.7845122
3A. COMISARIA DE FUTALEUFU (F),"Bernardo O'Higgins 516, 5500000 Futaleufú, Los Lagos Region, Chile",-43.1864365,-71.8673243
TENENCIA EL LIMITE (F),"Ruta 231 CH, Futaleufú, Los Lagos Region, Chile",-43.176725362195356,-71.75866092409683
3A. COMISARIA DE MAULLIN,"Costanera 35, 5710000 Maullín, Los Lagos Region, Chile",-41.621157703316236,-73.59432068211765
RETEN LA PASADA,"Ruta V-46, 5710000 Maullín, Los Lagos Region, Chile",-41.6032684,-73.59796110000002
RETEN OLMOPULLI,"Ruta V-922, 5500000 Maullín, Los Lagos Region, Chile",-41.593492883913534,-73.40518560118869
RETEN QUENUIR,"Ignacio Serrano, 5710000 Maullín, Los Lagos Region, Chile",-41.5645828,-73.67683970000002
TENENCIA CARELMAPU,"Bernardo O'Higgins, 5710000 Maullín, Los Lagos Region, Chile",-41.745869217245485,-73.70655751426534
1A. COMISARIA OSORNO,"Justo Geisse 846, 5310719 Osorno, Los Lagos Region, Chile",-40.57706919231502,-73.12614992669984
3A. COMISARIA OSORNO (S.U.),"Iquique 472, 5300413 Osorno, Los Lagos Region, Chile",-40.574832106692604,-73.15007509257157
PREFECTURA OSORNO N° 4,"Justo Geisse 849, 5310718 Osorno, Los Lagos Region, Chile",-40.5768811,-73.1265263
RETEN CANCURA,"Las Rosas, 5310000 Osorno, Los Lagos Region, Chile",-40.759278391795384,-72.9662426398811
RETEN ELEUTERIO RAMIREZ,"Ruta U-423, 5310000 Osorno, Los Lagos Region, Chile",-40.591666430993584,-72.94906907301635
RETEN OVEJERIA,"Ernesto Riquelme 148, 5300000 Osorno, Los Lagos Region, Chile",-40.581295026126064,-73.14869626541372
RETEN PAMPA ALEGRE,"Los Álamos 545, 5290676 Osorno, Los Lagos Region, Chile",-40.564765895964754,-73.15246970231846
SUBCOMISARÍA RAHUE ALTO,"Guatemala 1437, 5301026 Osorno, Los Lagos Region, Chile",-40.5826394863754,-73.1662735318705
TENENCIA CARRETERA OSORNO,"Ruta 5 Sur, 5310000 Osorno, Los Lagos Region, Chile",-40.640457671180556,-73.11512026085205
5A. COMISARIA DE PALENA (F),"Pedro Montt 765, 5950000 Palena, Los Lagos Region, Chile",-43.61844642004998,-71.8035988416159
RETEN VALLE CALIFORNIA (F),"Ruta W-895, 5950000 Palena, Los Lagos Region, Chile",-43.68352467936366,-71.70868073002475
TENENCIA RÍO ENCUENTRO (F),"Ruta 235 CH, Palena, Los Lagos Region, Chile",-43.593647662527886,-71.71250689410465
2A. COMISARIA PUERTO MONTT,"Ejército 200, 5502597 Puerto Montt, Los Lagos Region, Chile",-41.47051815450985,-72.93549895844728
5A. COMISARIA PUERTO MONTT,"Avenida Parque Industrial 420, 5501089 Puerto Montt, Los Lagos Region, Chile",-41.46039793621381,-72.95240989748385
PREFECTURA LLANQUIHUE,"Copiapó 180, 5504451 Puerto Montt, Los Lagos Region, Chile",-41.4709103,-72.9354723
RETEN PIEDRA AZUL (EX CORRENTOSO),"Ruta V-651, 5500000 Puerto Montt, Los Lagos Region, Chile",-41.453436,-72.6626382
TENENCIA PANITAO (MC),"Conexión Urbana Ruta 5 (Trapén) - Ruta 7 4, 5500000 Puerto Montt, Los Lagos Region, Chile",-41.522453592683576,-73.08875181957399
7A. COMISARIA MIRASOL,"Avenida La Cruz 2006, 5505417 Puerto Montt, Los Lagos Region, Chile",-41.475032606098736,-72.98392593595258
6A. COMISARIA ALERCE (S.U.).,"Quinchao 750, 5520000 Puerto Montt, Los Lagos Region, Chile",-41.39899703934482,-72.90303543950824
TENENCIA LAS QUEMAS,"Camino Las Quemas, 5500000 Puerto Montt, Los Lagos Region, Chile",-41.40202338733681,-73.18010633491821
SUBCOMISÍA RELONCAVI,"Río Cululil 11, 5500000 Puerto Montt, Los Lagos Region, Chile",-41.473590215834356,-72.91056957035886
X ZONA DE CARABINEROS LOS LAGOS,"Miramar 1500, 5507060 Puerto Montt, Los Lagos Region, Chile",-41.4783817,-72.9534732
8A. COMISARIA C.O.P. LLANQUIHUE,"Huasco 30, 5502536 Puerto Montt, Los Lagos Region, Chile",-41.4723477,-72.9340419
1A. COMISARIA DE PUERTO VARAS,"San Francisco 241, 5550508 Puerto Varas, Los Lagos Region, Chile",-41.31632482548893,-72.9843139656067
RETEN NUEVA BRAUNAU,"Otto Klein 137, 5550000 Puerto Varas, Los Lagos Region, Chile",-41.325761588052416,-73.07917207867717
RETEN RIO PESCADO,"Ruta 225 CH, 5520000 Puerto Varas, Los Lagos Region, Chile",-41.2534545,-72.79693480000003
TENENCIA CARRETERA LLANQUIHUE,"Ruta 5 Sur, Puerto Varas, Los Lagos Region, Chile",-41.35708191892799,-72.97895755078736
TENENCIA CASA PANGUE (F),"Ruta 225 CH, 5520000 Puerto Varas, Los Lagos Region, Chile",-41.04764605107673,-71.87666677479933
TENENCIA ENSENADA,"Ruta 225 CH, 5520000 Puerto Varas, Los Lagos Region, Chile",-41.20851814297294,-72.53864138095093
2A. COMISARIA DE RIO NEGRO,"Arturo Prat 471, 5390212 Río Negro, Los Lagos Region, Chile",-40.7993203,-73.21821369999998
RETEN RIACHUELO,"Barros Arana 295, 5300000 Río Negro, Los Lagos Region, Chile",-40.82058053070643,-73.33915384166414
RETEN CANUTILLAR,"Ralún - Canutillar - Lago Chapo, Cochamó, Los Lagos Region, Chile",-41.49592230310479,-72.33402435277861
RETEN COCHAMO,"Avenida Cochamó 179, 5500000 Cochamó, Los Lagos Region, Chile",-41.4931149,-72.30526399999997
RETEN LLANADA GRANDE (F),"Ruta V-721, 5500000 Cochamó, Los Lagos Region, Chile",-41.8696493,-71.94179680000002
RETEN PASO BOLSON (F),"Cochamó, Chile",-42.0814583,-71.8056664
RETEN PASO EL LEON (F),"Cochamó, Chile",-41.503448197495935,-71.8558098116394
RETEN RIO PUELO,"Ruta V-695, 5500000 Cochamó, Los Lagos Region, Chile",-41.6593025,-72.3387156
RETEN CASMA,"Joaquin Prieto 102, 5550000 Frutillar, Los Lagos Region, Chile",-41.0100106,-73.1230116
SUBCOMISARÍA FRUTILLAR,"Pasaje Suecia 580, 5550000 Frutillar, Los Lagos Region, Chile",-41.12871514322552,-73.05259406824177
RETEN CONTAO,"Bernardo O'Higgins, 5500000 Hualaihué, Los Lagos Region, Chile",-41.80412155500633,-72.71850150806551
RETEN VODUDAHUE (F),"Hualaihué, Chile",-42.4902790390461,-72.39142732023777
TENENCIA HORNOPIREN (F),"Avenida Bernardo O'Higgins 2, 5500000 Hualaihué, Los Lagos Region, Chile",-41.9669075,-72.4711713
RETEN CORTE ALTO,"Vicuña Mackenna 245, 5300000 Purranque, Los Lagos Region, Chile",-40.9517376916906,-73.16218894232787
RETEN CRUCERO,"Ruta U-900, 5300000 Purranque, Los Lagos Region, Chile",-40.9252401,-73.34926289999999
SUBCOMISARÍA PURRANQUE,"Eleuterio Ramírez 460, 5380449 Purranque, Los Lagos Region, Chile",-40.91436301730845,-73.16198332513125
RETEN ISLA QUENAC,"Quinchao, Chile",-42.4581403542609,-73.33141116931154
SUBCOMISARÍA ACHAO,"Ricardo Jara 12, 5700000 Quinchao, Los Lagos Region, Chile",-42.471777303818584,-73.49294863041052
RETEN LAS CASCADAS,"Vicente Pérez Rosales 251, 5550000 Puerto Octay, Los Lagos Region, Chile",-41.082804,-72.63570679999998
RETEN RUPANCO,"Camino Central Rupanco - Puerto Rico, Puerto Octay, Los Lagos Region, Chile",-40.8640045,-72.7180907
TENENCIA PUERTO OCTAY,"Germán Wulff 1, 5550000 Puerto Octay, Los Lagos Region, Chile",-40.9706882,-72.88355639999997
RETEN LONCOTORO,"Línea Balmaceda, 5550000 Llanquihue, Los Lagos Region, Chile",-41.2943151,-73.21253059999998
RETEN LOS PELLINES,"Arturo Prat KM 989, 5550000 Llanquihue, Los Lagos Region, Chile",-41.190485513279526,-73.06972572332796
SUBCOMISARÍA LLANQUIHUE,"Ignacio Serrano 618, 5550000 Llanquihue, Los Lagos Region, Chile",-41.2686649,-72.9999987
RETEN MECHUQUE,"Quemchi, Chile",-42.3141387,-73.26805289999999
RETEN QUEMCHI,"Pedro Montt 300, 5710000 Quemchi, Los Lagos Region, Chile",-42.144012593637335,-73.4734823083312
RETEN PARAGUAY CHICO,"Acceso a Paraguay Chico, 5500000 Los Muermos, Los Lagos Region, Chile",-41.4118249,-73.28534200000001
RETEN RIO FRIO,"Avenida Llico, 5550000 Los Muermos, Los Lagos Region, Chile",-41.30001222357774,-73.45112667885451
SUBCOMISARÍA LOS MUERMOS,"Pablo Tellez 300, 5550000 Los Muermos, Los Lagos Region, Chile",-41.39446272278061,-73.4656963306885
RETEN PARGUA,"Cochrane KM 1078, 5710000 Calbuco, Los Lagos Region, Chile",-41.79115397466461,-73.46060491310197
RETEN TEGUALDA,"Ruta U-960-V 222, 5550000 Fresia, Los Lagos Region, Chile",-41.0394336,-73.4088079
TENENCIA FRESIA,"O'Higgins 298, 5600335 Fresia, Los Lagos Region, Chile",-41.15373505208999,-73.41731623187712
RETEN PUQUELDON,"Teniente Merino, 5700000 Puqueldón, Los Lagos Region, Chile",-42.6001135,-73.67588339999998
RETEN QUEILEN,"José Manuel Balmaceda 83, 5700000 Queilen, Los Lagos Region, Chile",-42.8912152,-73.47587090000002
RETEN QUILACAHUIN,"Ruta U-170, 5220000 San Pablo, Los Lagos Region, Chile",-40.3764079,-73.26607150000001
RETEN TRUMAO,"Ruta U-100, 5220000 San Pablo, Los Lagos Region, Chile",-40.36134950137369,-73.16541690422974
TENENCIA SAN PABLO,"Tralmahue 504, 5350031 San Pablo, Los Lagos Region, Chile",-40.4111392,-73.0076618
6A. COMISARIA QUELLON (S.U),"Juan Ladrillero 550, 5790111 Quellón, Los Lagos Region, Chile",-43.11704624470087,-73.62165161562348
TENENCIA CHONCHI,"Avenida Pedro Aguirre Cerda 200, 5700000 Chonchi, Los Lagos Region, Chile",-42.62072707334235,-73.7742516460309
TENENCIA DALCAHUE,"Avenida Mocopulli 35, 5700000 Dalcahue, Los Lagos Region, Chile",-42.3789392610629,-73.65278854362293
TENENCIA ENTRE LAGOS,"Heriberto Novoa 1274, 5310000 Puyehue, Los Lagos Region, Chile",-40.686074315555274,-72.60457790000464
TENENCIA PAJARITOS (F),"Ruta 215 CH, Puyehue, Los Lagos Region, Chile",-40.6624031,-72.13130260000003
RETEN BAHIA MANSA,"Avenida Panguimapu KM 58, 5300000 San Juan de la Costa, Los Lagos Region, Chile",-40.5817694,-73.73268000000002
RETEN SAN JUAN DE LA COSTA,"Camino Puaucho - Trinidad, 5300000 San Juan de la Costa, Los Lagos Region, Chile",-40.4990393303316,-73.39662309359073
RETEN CURACO DE VELEZ,"Carlos Miller Norton 2, 5700000 Curaco de Vélez, Los Lagos Region, Chile",-42.43899889727484,-73.59544789763027
2A. COMISARIA DE PUERTO AYSEN,"Bernardo O'Higgins 553, 6000000 Aysén, Aysén Region, Chile",-45.406128480025714,-72.69720626125536
RETEN PUERTO AGUIRRE,"General San Martín 377, 600 Aysén, Aysén Region, Chile",-45.1645255,-73.52425310000001
RETEN PUERTO CHACABUCO,"Avenida Jose Maria Caro 335, 6000000 Aysén, Aysén Region, Chile",-45.46175727715607,-72.8191375036248
RETÉN VILLA MAÑIHUALES,"Eusebio Ibar (Carretera Austral) 1716, 5950000 Aysén, Aysén Region, Chile",-45.177662034533896,-72.1499661767798
4A. COMISARIA COCHRANE (F),"Las Golondrinas 436, 6050000 Cochrane, Aysén Region, Chile",-47.2533463,-72.5741287
5A. COMISARIA C.O.P. AYSEN,"Avenida Almirante Simpson 2382, 5950047 Coyhaique, Aysén Region, Chile",-45.5852908,-72.0410981
3A. COMISARIA DE CHILE CHICO (F),"Avenida Bernardo O'Higgins 192, 6050000 Chile Chico, Aysén Region, Chile",-46.540061994323786,-71.72410991864547
RETEN PUERTO GUADAL,"Las Camelias 430, 6050000 Chile Chico, Aysén Region, Chile",-46.84448439297852,-72.70139542944577
RETEN PUYUHUAPI,"Bernardo O'Higgins 613, 6000000 Cisnes, Aysén Region, Chile",-44.32492499390086,-72.55804537208178
RETEN RAUL MARIN BALMACEDA,"Las Hermanas, 5700000 Cisnes, Aysén Region, Chile",-43.7762477,-72.9537723
TENENCIA LA JUNTA,"Carretera Austral KM 269, 6000000 Cisnes, Aysén Region, Chile",-43.97243617732481,-72.40183917517572
SUBCOMISARÍA PUERTO CISNES,"José María Caro, 6000000 Cisnes, Aysén Region, Chile",-44.72728901140264,-72.68301292628377
PREFECTURA DE AYSEN,"Avenida General Baquedano 511, 5950000 Coyhaique, Aysén Region, Chile",-45.5698492,-72.0638961
1A. COMISARÍA DE COYHAIQUE,"Avenida General Baquedano 500, 5950000 Coyhaique, Aysén Region, Chile",-45.56976575919555,-72.06388242190849
SUBCOMISARÍA EL BLANCO (M.C),"Carretera Austral KM 33, 5950000 Coyhaique, Aysén Region, Chile",-45.8088233,-71.9184401
RETEN LAGO CASTOR (F),"Camino Paso Triana, 5950000 Coyhaique, Aysén Region, Chile",-45.5813962,-71.74422340000001
RETEN PUESTO VIEJO (F),"Jerónimo de Alderete KM 63, 5950000 Coyhaique, Aysén Region, Chile",-45.2689483,-71.71337340000002
RETEN VILLA ORTEGA,"Carretera Austral, 5950000 Coyhaique, Aysén Region, Chile",-45.373134355085284,-71.99635225187836
TENENCIA  BALMACEDA (F),"Los Carrera, 5950000 Coyhaique, Aysén Region, Chile",-45.91094311622928,-71.69175488994568
TENENCIA COYHAIQUE ALTO (F),"Camino Punta El Monte, 5950000 Coyhaique, Aysén Region, Chile",-45.4801974,-71.60410769999999
RETEN MELINKA,"Los Huilliches, 5700000 Guaitecas, Aysén Region, Chile",-43.8966968,-73.7480754
RETEN LAGO VERDE (F),"Valle Quinto 52, 5950000 Lago Verde, Aysén Region, Chile",-44.2397411,-71.8478806
RETEN RIO CISNES (F),"Camino Paso Appeleg, Lago Verde, Aysén Region, Chile",-44.497551154010445,-71.30710927588905
RETÉN VILLA LA TAPERA,"Padre Ronchi, 5950000 Lago Verde, Aysén Region, Chile",-44.6476477,-71.6711062
SUBCOMISARÍA VILLA OHIGGINS (F),"Río Mayer KM 1240, 6050000 O’Higgins, Aysén Region, Chile",-48.47076216786797,-72.5602715795145
TENENCIA RIO MAYER (F),"Cruce X-91 - Entrada Mayer - Paso Río Mayer Ribera Norte, 6050000 O’Higgins, Aysén Region, Chile",-48.2095441,-72.32435370000002
TENENCIA TTE. HERNAN MERINO CORREA (F),"Ruta X-915, O’Higgins, Aysén Region, Chile",-48.86929409960298,-72.74220548102033
RETEN RIO TRANQUILO,"El Salto 390, 6050000 Río Ibáñez, Aysén Region, Chile",-46.62674900565247,-72.67547359614179
TENENCIA PUERTO INGENIERO IBAÑEZ (F),"Avenida General Carrera 202, 6050000 Río Ibáñez, Aysén Region, Chile",-46.2942451,-71.93306489999998
RETEN CALETA TORTEL,"Pasarela Padre Antonio Ronchi, 6050000 Tortel, Aysén Region, Chile",-47.8018648,-73.53785089999997
4A. COMISARIA COCHRANE,"Esmeralda 522, 6050000 Cochrane, Aysén Region, Chile",-47.25332261017879,-72.57205166780687
RETEN ENTRADA BAKER (F),"Camino Paso Roballos, 6050000 Cochrane, Aysén Region, Chile",-47.18392794346061,-71.97392672085147
RETEN PUERTO TORO (F),"Cape Horn, Chile",-55.083286,-67.07453379999998
4A. COMISARÍA PUERTO WILLIAMS (F),"Piloto Pardo 256, 6350063 Cape Horn, Region of Magallanes and Chilean Antarctica, Chile",-54.93402486950467,-67.5986858823328
TENENCIA YENDEGAIA (F),"Ruta Y-85, Cape Horn, Region of Magallanes and Chilean Antarctica, Chile",-54.866587651492175,-68.69036438525006
RETEN MORRO CHICO (F),"Ruta 9 Norte, 6210000 Laguna Blanca, Region of Magallanes and Chilean Antarctica, Chile",-52.05530195503021,-71.42842459776949
RETEN VILLA TEHUELCHES,"Santiago Alvarez KM 100, 6210000 Laguna Blanca, Region of Magallanes and Chilean Antarctica, Chile",-52.42786665585612,-71.41579280407393
2A. COMISARÍA DE PUERTO NATALES,"Tomás Rogers 274, 6160953 Puerto Natales, Region of Magallanes and Chilean Antarctica, Chile",-51.72753509158926,-72.50636727779488
RETEN DOROTEA (F),"Ruta 250 CH, 6210000 Puerto Natales, Region of Magallanes and Chilean Antarctica, Chile",-51.60442791772668,-72.33392639629517
SUBCOMISARÍA CASAS VIEJAS (F),"Ruta 9 Norte, Puerto Natales, Region of Magallanes and Chilean Antarctica, Chile",-51.69970792955336,-72.32866966985807
RETEN PUERTO EDEN,"Puerto Natales, Chile",-49.122449013289035,-74.42353283003308
3A. COMISARÍA DE PORVENIR,"Chiloé 902, 6210000 Porvenir, Region of Magallanes and Chilean Antarctica, Chile",-53.29630615265672,-70.376811974205
TENENCIA SAN SEBASTIAN (F),"Ruta 257 CH, 6210000 Porvenir, Region of Magallanes and Chilean Antarctica, Chile",-53.321113734615196,-68.66098877420501
1A COMISARIA DE PUNTA ARENAS ,"Mateo de Toro y Zambrano 1837, 6201081 Punta Arenas, Region of Magallanes and Chilean Antarctica, Chile",-53.1645243,-70.93036849999999
PREFECTURA MAGALLANES,"Plaza Benjamín Muñoz Gamero 1072, 6200555 Punta Arenas, Region of Magallanes and Chilean Antarctica, Chile",-53.1620631,-70.90923529999998
RETEN AGUA FRESCA,"Camino Laguna Parrillar, 6200000 Punta Arenas, Region of Magallanes and Chilean Antarctica, Chile",-53.40402391890154,-70.9917595538119
SUBCOMISARÍA  RIO SECO,"Ruta 9 Norte, 6210000 Punta Arenas, Region of Magallanes and Chilean Antarctica, Chile",-53.0553394,-70.8609801
SUBCOMISARÍA I.A.T. PUNTA ARENAS,"Ruta 9 Sur 1460, 6200000 Punta Arenas, Region of Magallanes and Chilean Antarctica, Chile",-53.2020746,-70.9379908
TENENCIA KON AIKEN,"Ruta 9 Norte, Punta Arenas, Region of Magallanes and Chilean Antarctica, Chile",-52.916084,-70.903018
RETEN CAÑADON GRANDE (F),"Camino Punta Dungeness, San Gregorio, Region of Magallanes and Chilean Antarctica, Chile",-52.1916647,-69.21086120000001
RETEN TENIENTE HERNAN MERINO CORREA (F),"Ruta Y-455, San Gregorio, Region of Magallanes and Chilean Antarctica, Chile",-52.0257998,-70.7349188
TENENCIA MONTE AYMOND (F),"Ruta 255 CH, 6210000 San Gregorio, Region of Magallanes and Chilean Antarctica, Chile",-52.14576275140814,-69.51689080118865
RETEN PAMPA GUANACO (F),"Ruta Y-85, 621 Timaukel, Region of Magallanes and Chilean Antarctica, Chile",-54.04913590239063,-68.80196899444275
RETEN CERRO GUIDO (F),"Ruta 9 Norte, 6210000 Torres del Paine, Region of Magallanes and Chilean Antarctica, Chile",-50.94134973858241,-72.45709361838533
RETEN TORRES DEL PAINE,"Ruta 9 Norte, 6210000 Torres del Paine, Region of Magallanes and Chilean Antarctica, Chile",-51.2592686,-72.34611089999999
TENENCIA CERRO SOMBRERO (F),"Arturo Prat 191, 6210000 Primavera, Region of Magallanes and Chilean Antarctica, Chile",-52.7722278,-69.28755000000001
TENENCIA VILLA ALHUE,"18 de Septiembre 450, 9790000 Alhué, Santiago Metropolitan Region, Chile",-34.03080319164984,-71.10059091457362
15A. COMISARIA DE BUIN,"14 de Febrero 45, 9500024 Buin, Santiago Metropolitan Region, Chile",-33.72827207357754,-70.74452948285784
TENENCIA ALTO JAHUEL,"Miraflores 9, 9500000 Buin, Santiago Metropolitan Region, Chile",-33.73202850007863,-70.68403793005706
TENENCIA LINDEROS,"Francisco Javier Krugger 229, 9500000 Buin, Santiago Metropolitan Region, Chile",-33.7599105,-70.73577840000002
TENENCIA VILUCO,"Ruta G-46 1908, Buin, Santiago Metropolitan Region, Chile",-33.78235472538732,-70.79158911484217
SUBCOMISARÍA MAIPO,"García 196, 9510000 Buin, Santiago Metropolitan Region, Chile",-33.72959635315528,-70.77456478030604
SUBCOMISARÍA CALERA DE TANGO,"Avenida Calera de Tango 779, 9560000 Calera de Tango, Santiago Metropolitan Region, Chile",-33.63123856933523,-70.75845260468918
SUBCOMISARÍA CERRILLOS,"Buzeta 3986, 9210032 Cerrillos, Santiago Metropolitan Region, Chile",-33.47952283129692,-70.68788300361206
34A. COMISARÍA VISTA ALEGRE,"Avenida Las Torres 7468, 9200316 Cerrillos, Santiago Metropolitan Region, Chile",-33.49899855612633,-70.73235714929967
45A. COMISARÍA DE CERRO NAVIA,"Los Conquistadores 7350, 9110053 Cerro Navia, Santiago Metropolitan Region, Chile",-33.4228550673347,-70.7429483756847
8A. COMISARÍA DE COLINA,"General San Martín KM 29, 9350000 Colina, Santiago Metropolitan Region, Chile",-33.2041264012908,-70.6758849976215
TENENCIA CARRETERA COLINA,"Autopista Los Libertadores, 9350000 Colina, Santiago Metropolitan Region, Chile",-33.21738587638709,-70.67629060251619
SUBCOMISARÍA CHICUREO,"Transversal 1 2, 9360000 Colina, Santiago Metropolitan Region, Chile",-33.27835226795621,-70.65406721097565
5A. COMISARIA DE CONCHALI,"Avenida General Gambino 3707, 8540424 Conchalí, Santiago Metropolitan Region, Chile",-33.390028935727486,-70.66013793542089
RETEN ENEAS GONEL,"Armando Carrera 4041, 8540163 Conchalí, Santiago Metropolitan Region, Chile",-33.385200625847595,-70.65878599966572
SUBCOMISARÍA CONCHALI NORTE,"Ignacio Carrera Pinto 6208, 8550014 Conchalí, Santiago Metropolitan Region, Chile",-33.36693295004939,-70.68955424867573
63A COMISARIA CURACAVI,"Avenida Ambrosio O'Higgins 2211, 9630444 Curacaví, Santiago Metropolitan Region, Chile",-33.40138354442522,-71.12013504456331
TENENCIA CARRETERA CURACAVI,"Ruta 68, 963 Curacaví, Santiago Metropolitan Region, Chile",-33.40568745900355,-71.18889781282803
39A. COMISARÍA EL BOSQUE ,"Los Raulíes 11240, 8031313 El Bosque, Santiago Metropolitan Region, Chile",-33.565717977378576,-70.66598594150366
TENENCIA EL BOSQUE PONIENTE,"El Pillán 1266, 8020500 El Bosque, Santiago Metropolitan Region, Chile",-33.55184207392855,-70.68838514441558
RETEN EL PAICO,"Avenida Los Libertadores 2006, 9810000 El Monte, Santiago Metropolitan Region, Chile",-33.689643320676296,-71.05344527976229
TENENCIA CARRETERA MELIPILLA,"Ruta 78 KM 50, 9810000 El Monte, Santiago Metropolitan Region, Chile",-33.69758026184218,-71.03288797050016
SUBCOMISARÍA EL MONTE,"Avenida Los Libertadores 223, 9810274 El Monte, Santiago Metropolitan Region, Chile",-33.67876184124001,-70.97868340838534
21A. COMISARÍA DE ESTACIÓN CENTRAL ,"Avenida Ecuador 4050, 9170429 Estación Central, Santiago Metropolitan Region, Chile",-33.451381755901515,-70.69234022170309
58A COMISARÍA POBLACIÓN ALESSANDRI,"Antártica 4701, 9180273 Estación Central, Santiago Metropolitan Region, Chile",-33.469768060633896,-70.69887698229502
54A. COMISARÍA DE HUECHURABA,"Avenida Recoleta 5566, 8581133 Huechuraba, Santiago Metropolitan Region, Chile",-33.37476314257797,-70.63736997368011
9A. COMISARÍA DE INDEPENDENCIA,"Hipódromo Chile 1225, 8380144 Independencia, Santiago Metropolitan Region, Chile",-33.40665674038805,-70.65707423254088
30A. COMISARIA RADIOPATRULLAS E INTERVENCION POLICIAL,"Carrión 5, 8380470 Independencia, Santiago Metropolitan Region, Chile",-33.419021522261254,-70.66107921609535
57A. COMISARÍA MOTORIZADA,"Bezanilla 1558, 8380461 Independencia, Santiago Metropolitan Region, Chile",-33.41789889468,-70.66138465475103
SUBCOMISARÍA VILLA MODERNA,"Coronel Alvarado 2450, 8390052 Independencia, Santiago Metropolitan Region, Chile",-33.40490090457225,-70.67251316931151
TENENCIA JUAN ANTONIO RIOS,"Sara Gajardo 936, 8390666 Independencia, Santiago Metropolitan Region, Chile",-33.42140580365094,-70.67091579352939
RETEN LA ISLITA,"Balmaceda 3156, 9800303 Isla de Maipo, Santiago Metropolitan Region, Chile",-33.747496317621774,-70.86582944726274
TENENCIA ISLA DE MAIPO,"Manuel Rodríguez 949, 9790245 Isla de Maipo, Santiago Metropolitan Region, Chile",-33.749803291047726,-70.90271282582614
10A. COMISARÍA DE LA CISTERNA,"Gran Avenida José Miguel Carrera 9089, 7990506 La Cisterna, Santiago Metropolitan Region, Chile",-33.54100413045935,-70.66556306891414
PREFECTURA SANTIAGO SUR,"General Freire 20, 7970297 La Cisterna, Santiago Metropolitan Region, Chile",-33.5204639,-70.6596335
TENENCIA NUEVA ESPAÑA,"Avenida Industrias 8408, 7970508 La Cisterna, Santiago Metropolitan Region, Chile",-33.52844177651561,-70.67249977646986
36A. COMISARÍA DE LA FLORIDA,"Doctor Sótero del Río 321, 8250052 La Florida, Santiago Metropolitan Region, Chile",-33.53960836496922,-70.5975335147499
61A COMISARÍA CABO 2DO PABLO SILVA PIZARRO,"Avenida Departamental 3273, 8270000 La Florida, Santiago Metropolitan Region, Chile",-33.5118855408094,-70.56525058998153
SUBCOMISARÍA LOS QUILLAYES,"Galvarino 4430, 8311469 La Florida, Santiago Metropolitan Region, Chile",-33.56430460829649,-70.59346211394387
SUBCOMISARÍA LOS JARDINES,"Avenida La Florida 9081, 8242043 La Florida, Santiago Metropolitan Region, Chile",-33.534854371266704,-70.57428182255336
13A. COMISARÍA DE LA GRANJA,"Padre Juan Meyer 843, 8790303 La Granja, Santiago Metropolitan Region, Chile",-33.53535249545684,-70.6134927107289
SUBCOMISARÍA PARQUE BRASIL,"Sebastopol 90, 8780050 La Granja, Santiago Metropolitan Region, Chile",-33.5153758800964,-70.61476365919697
TENENCIA TTE. MAURICIO RIVERA LOPEZ,"Avenida Cardenal Raúl Silva Henríquez 10537, 8800000 La Granja, Santiago Metropolitan Region, Chile",-33.556339430528865,-70.61655888997143
41A. COMISARÍA LA PINTANA,"Baldomero Lillo 1901, 8822346 San Ramón, Santiago Metropolitan Region, Chile",-33.58297940628413,-70.63149720978697
TENENCIA EL CASTILLO,"La Primavera 3741, 8831237 El Bosque, Santiago Metropolitan Region, Chile",-33.59479093723171,-70.6105396406204
16A. COMISARÍA LA REINA,"Avenida Echeñique 8428, 7860158 La Reina, Santiago Metropolitan Region, Chile",-33.44157654732465,-70.5442129996942
TENENCIA BATUCO,"Uno 169, 9390000 Lampa, Santiago Metropolitan Region, Chile",-33.23850068409108,-70.80688770012279
TENENCIA CARRETERA LAMPA,"Ruta 5 Norte, Lampa, Santiago Metropolitan Region, Chile",-33.23233156137421,-70.7609236129669
59A. COMISARÍA LAMPA,"Sargento Aldea 1120, 9380000 Lampa, Santiago Metropolitan Region, Chile",-33.285524808406684,-70.87327397926208
17A. COMISARÍA LAS CONDES,"Las Tranqueras 840, 7560144 Las Condes, Santiago Metropolitan Region, Chile",-33.39427439981991,-70.55429438298876
47A. COMISARÍA LOS DOMINICOS,"47ª Comisaría de las Condes, 7600831 Las Condes, Santiago Metropolitan Region, Chile",-33.404236669326146,-70.53814399577027
SUBCOMISARIA SERVICIOS DIPLOMATICOS,"Polobanda 1957, 7571486 Las Condes, Santiago Metropolitan Region, Chile",-33.4299798,-70.5568352
53A. COMISARÍA DE LO BARNECHEA,"Avenida Lo Barnechea 1149, 7690297 Lo Barnechea, Santiago Metropolitan Region, Chile",-33.35862077870832,-70.50612834637388
RETEN FARELLONES,"Camino Los Cóndores 636, 7710000 Lo Barnechea, Santiago Metropolitan Region, Chile",-33.3523448,-70.31559190000002
SUBCOMISARÍA LO BARNECHEA,"La Quebrada 12401, 7700000 Lo Barnechea, Santiago Metropolitan Region, Chile",-33.3329283,-70.5202212
TENENCIA LO SIERRA,"Avenida Lo Espejo 3443, 9130461 Lo Espejo, Santiago Metropolitan Region, Chile",-33.53211917149135,-70.70371995767044
TENENCIA SANTA ADRIANA,"Avenida Lo Ovalle 2480, 9120813 Lo Espejo, Santiago Metropolitan Region, Chile",-33.50825587900876,-70.6790455358767
11A. COMISARÍA DE LO ESPEJO,"Cardenal José María Caro 3971, 9140131 Lo Espejo, Santiago Metropolitan Region, Chile",-33.50714411829968,-70.69642231083316
42A. COMISARIA RADIO PATRULLAS E INTERVENCION POLICIAL,"Buenaventura 3963, 9141033 Lo Espejo, Santiago Metropolitan Region, Chile",-33.5051812,-70.6952565
40A. COMISARÍA C.O.P. (ESTE),"General Velásquez, 9220010 Cerrillos, Santiago Metropolitan Region, Chile",-33.5062183,-70.6976369
44A. COMISARÍA DE LO PRADO,"Avenida San Pablo 5849, 8990031 Lo Prado, Santiago Metropolitan Region, Chile",-33.44287360129767,-70.71615840887716
46A. COMISARÍA MACUL ,"Joaquín Rodríguez 7176, 7820087 Macul, Santiago Metropolitan Region, Chile",-33.489935592935254,-70.60803718526165
25A. COMISARÍA MAIPÚ,"Bailén 2185, 9251500 Maipú, Santiago Metropolitan Region, Chile",-33.50707537697935,-70.75475607790986
52A. COMISARÍA DE RINCONADA DE MAIPÚ,"Avenida 4 Poniente 2020, 9273512 Maipú, Santiago Metropolitan Region, Chile",-33.51119995792975,-70.79086946078263
SUBCOMISARÍA MAIPÚ ORIENTE,"Avenida Parque Central Poniente 671, 9280597 Maipú, Santiago Metropolitan Region, Chile",-33.55833285789586,-70.78949399515187
TENENCIA MARIA PINTO,"Avenida Francisco Costabal Echeñique 596, 9620000 María Pinto, Santiago Metropolitan Region, Chile",-33.5156086,-71.1185795
24A. COMISARIA DE MELIPILLA,"Ortúzar 674, 9580867 Melipilla, Santiago Metropolitan Region, Chile",-33.6879271086215,-71.21551593928677
RETEN BOLLENAR,"Ruta G-74-F, Melipilla, Santiago Metropolitan Region, Chile",-33.56805966420973,-71.21124957320666
RETEN CODIGUA,"Porvenir, 9580000 Melipilla, Santiago Metropolitan Region, Chile",-33.75732807369224,-71.32432007967532
RETEN MALLARAUCO,"Ruta G-380, Melipilla, Santiago Metropolitan Region, Chile",-33.579738208754435,-71.05903438525007
RETEN POMAIRE,"San Antonio 335, 9580000 Melipilla, Santiago Metropolitan Region, Chile",-33.650794108024954,-71.1512265075803
18A. COMISARÍA ÑUÑOA,"Avenida Irarrázaval 5329, 7790752 Ñuñoa, Santiago Metropolitan Region, Chile",-33.45338561821438,-70.57553381234209
33A. COMISARÍA DE ÑUÑOA,"Avenida Marathon 1718, 7780253 Ñuñoa, Santiago Metropolitan Region, Chile",-33.47083203126184,-70.61381828035661
PREFECTURA SANTIAGO ORIENTE,"Avenida Irarrázaval 5329, 7790752 Ñuñoa, Santiago Metropolitan Region, Chile",-33.4532351,-70.5753344
ZONA METROPOLITANA ESTE,"Hamburgo 70, 7790713 Ñuñoa, Santiago Metropolitan Region, Chile",-33.4534565,-70.5766185
SUBCOMISARIA PADRE HURTADO,"Camino San Alberto Hurtado 2333, 9253139 Padre Hurtado, Santiago Metropolitan Region, Chile",-33.56894448847207,-70.81536684756429
TENENCIA SANTA ROSA DE CHENA,"Tenencia de Carabineros Jaime Saenz Neira 835, 9710000 Padre Hurtado, Santiago Metropolitan Region, Chile",-33.56425207946036,-70.79569370861765
TENENCIA CHAMPA,"Darío Pavez 132, 9540000 Paine, Santiago Metropolitan Region, Chile",-33.855048323080624,-70.76348664957669
RETEN HUELQUEN,"Camino Padre Hurtado, 954 Paine, Santiago Metropolitan Region, Chile",-33.83249064533289,-70.64184184309966
RETEN PINTUE,"Ruta G-54, 9790000 Paine, Santiago Metropolitan Region, Chile",-33.87741134517185,-70.88488662461941
64A. COMISARÍA PAINE,"Avenida General Baquedano 490, 9540862 Paine, Santiago Metropolitan Region, Chile",-33.80785729088696,-70.74157000674592
TENENCIA CARRETERA PAINE,"Ruta 5 Sur KM 53, 9540000 Paine, Santiago Metropolitan Region, Chile",-33.893717268643464,-70.73534738413088
51A. COMISARÍA DE PEDRO AGUIRRE CERDA,"Haití 4668, 8470187 Pedro Aguirre Cerda, Santiago Metropolitan Region, Chile",-33.49435798791528,-70.6842849914425
TENENCIA ALCALDE CARLOS VALDOVINOS,"Belén 3435, 8460814 Pedro Aguirre Cerda, Santiago Metropolitan Region, Chile",-33.48083232195027,-70.67429172068876
TENENCIA LA VICTORIA,"1 de Mayo 4560, 8480346 Pedro Aguirre Cerda, Santiago Metropolitan Region, Chile",-33.486749943012036,-70.67957278662396
TENENCIA PEDRO AGUIRRE CERDA,"Avenida Club Hípico 6035, 8490293 Pedro Aguirre Cerda, Santiago Metropolitan Region, Chile",-33.50390857303097,-70.6761199690074
 56A. COMISARIA PEÑAFLOR ,"18 de Septiembre 169, 9750000 Peñaflor, Santiago Metropolitan Region, Chile",-33.60759298915734,-70.901786903112
TENENCIA MALLOCO,"Avenida Balmaceda 93, 9750416 Peñaflor, Santiago Metropolitan Region, Chile",-33.60211881747886,-70.85040544298823
43A. COMISARÍA DE PEÑALOLEN,"Avenida Consistorial 2060, 7940113 Peñalolén, Santiago Metropolitan Region, Chile",-33.478144144895815,-70.54400720524097
SUBCOMISARÍA PEÑALOLEN,"Avenida Los Presidentes 6799, 7921001 Peñalolén, Santiago Metropolitan Region, Chile",-33.484029029899034,-70.56753344506444
TENENCIA SAN LUIS DE MACUL,"Principal 5682, 7930713 Peñalolén, Santiago Metropolitan Region, Chile",-33.5044061437541,-70.57750015374933
65A. COMISARÍA PIRQUE,"Avenida Concha y Toro 2278, 9480315 Pirque, Santiago Metropolitan Region, Chile",-33.63436285180231,-70.57334561527449
19A. COMISARÍA PROVIDENCIA,"Avenida José Miguel Claro 300, 7500604 Providencia, Santiago Metropolitan Region, Chile",-33.43230950285868,-70.61996019620784
SUBCOMISARIA PROVIDENCIA SUR,"Avenida Los Leones 1871, 7510891 Providencia, Santiago Metropolitan Region, Chile",-33.4363567,-70.6011805
26A. COMISARÍA DE PUDAHUEL,"Avenida Teniente Cruz 710, 8990202 Pudahuel, Santiago Metropolitan Region, Chile",-33.44842115781833,-70.73963181451387
55A. COMISARÍA SUBOFICIAL CRISTIAN VERA CONTRERAS,"Los Cerezos 427, 9060341 Pudahuel, Santiago Metropolitan Region, Chile",-33.4565872833755,-70.75508050366648
PREFECTURA SANTIAGO OCCIDENTE,"José Villagra 8122, 8990000 Pudahuel, Santiago Metropolitan Region, Chile",-33.4479902,-70.7394507
27A. COMISARÍA AEROPUERTO INTERNACIONAL,"César Copetta 878, 902 Pudahuel, Santiago Metropolitan Region, Chile",-33.4046568,-70.79277389999999
SUBCOMISARÍA PUDAHUEL NORTE,"El Arado 9033, 9021398 Pudahuel, Santiago Metropolitan Region, Chile",-33.43245573331924,-70.75984070146649
20A. COMISARÍA DE PUENTE ALTO,"José Manuel Balmaceda 431, 8180873 Puente Alto, Santiago Metropolitan Region, Chile",-33.607461760017195,-70.57526304475857
38A. COMISARÍA DE PUENTE ALTO,"Avenida Concha y Toro 3399, 8150031 Puente Alto, Santiago Metropolitan Region, Chile",-33.57891769999998,-70.58147877420504
PREFECTURA SANTIAGO CORDILLERA,"Avenida Concha y Toro 3399, 8150031 Puente Alto, Santiago Metropolitan Region, Chile",-33.578687,-70.5817015
RETEN EL PERAL,"Ciprés de las Guaitecas 3547, 8221469 Puente Alto, Santiago Metropolitan Region, Chile",-33.575162057397684,-70.57269057706833
SUBCOMISARÍA LAS VIZCACHAS,"5109, 818 Puente Alto, Santiago Metropolitan Region, Chile",-33.599005477952744,-70.52993323254088
66A. COMISARÍA BAJOS DE MENA,"La Lechería 3162, 8164062 Puente Alto, Santiago Metropolitan Region, Chile",-33.62546512161443,-70.61282693194653
62A. COMISARÍA SAN GERÓNIMO,"Real Audiencia 1254, 8164897 Puente Alto, Santiago Metropolitan Region, Chile",-33.6226846,-70.5892504
49A. COMISARÍA DE QUILICURA,"Cabo Primero Carlos Cuevas Olmos 526, 8730000 Quilicura, Santiago Metropolitan Region, Chile",-33.36552917850696,-70.74755865159
22A. COMISARÍA DE QUINTA NORMAL,"Santo Domingo 4438, 8500700 Quinta Normal, Santiago Metropolitan Region, Chile",-33.4398817,-70.695157
SUBCOMISARÍA CARRASCAL,"Embajador Gómez 2261, 8520789 Quinta Normal, Santiago Metropolitan Region, Chile",-33.42130872904643,-70.69556324860264
SUBCOMISARÍA LO BESSA,"Janequeo 5764, 8500082 Quinta Normal, Santiago Metropolitan Region, Chile",-33.4300038,-70.7147902
6A. COMISARÍA DE RECOLETA,"Gavilán 1980, 8441479 Recoleta, Santiago Metropolitan Region, Chile",-33.40932424815626,-70.64201136322936
PREFECTURA SANTIAGO NORTE,"Dávila Baeza 880, 8431651 Recoleta, Santiago Metropolitan Region, Chile",-33.42725082135427,-70.65100428888354
TENENCIA EL SALTO,"Avenida El Salto 3480, 8440461 Recoleta, Santiago Metropolitan Region, Chile",-33.394679034703195,-70.6254268587532
TENENCIA JOSÉ SANTOS OSSA,"José Santos Ossa 3401, 8440375 Recoleta, Santiago Metropolitan Region, Chile",-33.3941994396571,-70.63693276846709
SUBCOMISARÍA RECOLETA SUR,"Dávila Baeza 880, 8431651 Recoleta, Santiago Metropolitan Region, Chile",-33.427305796034034,-70.65089321408584
60A. COMISARÍA METRO SANTIAGO,"Dávila Baeza 897, 8431831 Recoleta, Santiago Metropolitan Region, Chile",-33.4270761,-70.6513362
7A. COMISARÍA DE RENCA,"Blanco Encalada 79, 8650616 Renca, Santiago Metropolitan Region, Chile",-33.40405850082183,-70.70439432561557
SUBCOMISARÍA LO VELASQUEZ,"Brasil 7845, 8660940 Renca, Santiago Metropolitan Region, Chile",-33.39830343827343,-70.74888592389482
14A. COMISARÍA SAN BERNARDO,"O'Higgins Oriente 319, 8071063 San Bernardo, Santiago Metropolitan Region, Chile",-33.5924431,-70.7013204
PREFECTURA DEL MAIPO,"Bulnes 927, 8071355 San Bernardo, Santiago Metropolitan Region, Chile",-33.6003661,-70.70366639999997
62A. COMISARIA SAN BERNARDO,"Avenida Colón Sur 713, 8051366 San Bernardo, Santiago Metropolitan Region, Chile",-33.5941967,-70.6865335
50A. COMISARÍA DE SAN JOAQUÍN,"Avenida Alcalde Carlos Valdovinos 282, 8950096 San Joaquín, Santiago Metropolitan Region, Chile",-33.48458710263193,-70.6296613951065
TENENCIA SAN GABRIEL (F),"Camino al Volcán KM 56, 9460470 San José de Maipo, Santiago Metropolitan Region, Chile",-33.782238695014044,-70.23958887116396
SUBCOMISARÍA SAN JOSE DE MAIPO (F),"Camino al Volcán 19333, 9460110 San José de Maipo, Santiago Metropolitan Region, Chile",-33.63659199628307,-70.35334700746955
12A. COMISARÍA DE SAN MIGUEL,"Gran Avenida José Miguel Carrera 3868, 8900157 San Miguel, Santiago Metropolitan Region, Chile",-33.4896961,-70.65080775211487
RETEN LOICA,"Ruta G-690, San Pedro, Santiago Metropolitan Region, Chile",-33.97646947952227,-71.46948489814758
TENENCIA SAN PEDRO,"Avenida Hermosilla 13, 9660007 San Pedro, Santiago Metropolitan Region, Chile",-33.895488339727954,-71.45435069247287
31A. COMISARÍA DE SAN RAMÓN,"Vicuña Mackenna 1759, 8880043 San Ramón, Santiago Metropolitan Region, Chile",-33.54610991201205,-70.64487411404082
1A. COMISARÍA SANTIAGO CENTRAL NORTE,"Santo Domingo 784, 8320051 Santiago, Santiago Metropolitan Region, Chile",-33.43591991574738,-70.64757438728736
2A. COMISARÍA SANTIAGO CENTRAL SUR,"Toesca 2368, 8370268 Santiago, Santiago Metropolitan Region, Chile",-33.45472806707984,-70.66753157998522
3A. COMISARÍA DE SANTIAGO CENTRAL NORTE,"Elias Fernandez Albano 174, 8340671 Santiago, Santiago Metropolitan Region, Chile",-33.44187276534944,-70.65851176444318
4A. COMISARÍA SANTIAGO CENTRAL SUR,"Chiloé 1472, 8360485 Santiago, Santiago Metropolitan Region, Chile",-33.46534171834985,-70.64547419523939
JEFATURA ZONA METROPOLITANA,"Catedral 1445, 8340751 Santiago, Santiago Metropolitan Region, Chile",-33.4373774,-70.6569373
PREFECTURA SANTIAGO CENTRAL NORTE,"Amunátegui 518, 8340305 Santiago, Santiago Metropolitan Region, Chile",-33.4377965,-70.6568869
RETÉN CASA MONEDA,"Avenida Portales 3586, 9170007 Estación Central, Santiago Metropolitan Region, Chile",-33.444344,-70.685496
28A. COMISARÍA C.O.P.,"San Isidro 327, 8330327 Santiago, Santiago Metropolitan Region, Chile",-33.4482175,-70.6435902
28A. COMISARÍA FUERZAS ESPECIALES (FF.EE.),"San Isidro 330, 8330327 Santiago, Santiago Metropolitan Region, Chile",-33.44843,-70.64306
TENENCIA PARQUE METROPOLITANO,"Avenida El Cerro 691, 7520192 Providencia, Santiago Metropolitan Region, Chile",-33.4151758,-70.6172038
48VA. COMISARÍA FAMILIA E INFANCIA,"Dieciocho 1427, 8330430 Santiago, Santiago Metropolitan Region, Chile",-33.449907169889705,-70.65758542820281
32A COMISARÍA DEL TRÁNSITO,"Santo Domingo 1135, 8340286 Santiago, Santiago Metropolitan Region, Chile",-33.43647619511441,-70.65384106441802
35VA. COMISARIA DELITOS SEXUALES,"Avenida Italia 1100, 7501324 Providencia, Santiago Metropolitan Region, Chile",-33.4447459198,-70.6252181818
23A. COMISARIA TALAGANTE,"Bombero Hernán Avilés González 875, 9670687 Talagante, Santiago Metropolitan Region, Chile",-33.67047124776245,-70.93884713224008
RETEN CALEU,"Cuesta Caleu 332, 9420000 Tiltil, Santiago Metropolitan Region, Chile",-33.0050771,-70.992701
RETEN HUERTOS FAMILIARES,"3 Oriente 241, 9420359 Tiltil, Santiago Metropolitan Region, Chile",-33.1365011,-70.79934760000003
TENENCIA TILTIL,"Daniel Moya 280, 9420226 Tiltil, Santiago Metropolitan Region, Chile",-33.08705402424304,-70.9217027707457
RETEN RUNGUE,"Ruta 5 Norte, Tiltil, Santiago Metropolitan Region, Chile",-33.0062908,-70.88906070000002
37A. COMISARÍA DE VITACURA,"Puerto Rico 7905, 7650464 Vitacura, Santiago Metropolitan Region, Chile",-33.389489123112256,-70.55451135641073
PREFECTURA SANTIAGO ANDES,"Avenida Santa María 6698, 7660000 Vitacura, Santiago Metropolitan Region, Chile",-33.377201,-70.57172400000002
TENENCIA CORRAL,"Blanco 12, 5190048 Corral, Los Ríos Region, Chile",-39.8890582,-73.4264044
RETEN LLIFEN (F),"Ruta T-551, 4930000 Futrono, Los Ríos Region, Chile",-40.198945630948444,-72.25933681031984
TENENCIA FUTRONO,"Avenida José Manuel Balmaceda 182, 4930000 Futrono, Los Ríos Region, Chile",-40.127821756766735,-72.39383227581789
3A. COMISARÍA LA UNIÓN.,"Philippi 766, 5220000 Comuna de La Unión, Los Ríos Region, Chile",-40.293292892136186,-73.08467559978527
RETEN CATAMUTUN,"Ruta T-724, Comuna de La Unión, Los Ríos Region, Chile",-40.1587559,-73.1299549
RETEN CUNCO MASHUE,"Ruta T-800, 5220000 Comuna de La Unión, Los Ríos Region, Chile",-40.2682772,-73.2961103
TENENCIA CARRETERA VALDIVIA,"Ruta 5 Sur, 5220000 Comuna de La Unión, Los Ríos Region, Chile",-40.17178330682487,-72.90077319510652
RETEN PUERTO NUEVO,"Ruta T-759, 5220000 Comuna de La Unión, Los Ríos Region, Chile",-40.24332357194987,-72.57975985787641
RETEN RIÑINAHUE (F),"Ruta T-851, Lago Ranco, Los Ríos Region, Chile",-40.32220976706765,-72.21125726071318
TENENCIA LAGO RANCO,"Viña del Mar 153, 5220000 Lago Ranco, Los Ríos Region, Chile",-40.3198824,-72.4764031
SUBCOMISARÍA LANCO,"Yungay 355, 5160093 Lanco, Los Ríos Region, Chile",-39.45232630666114,-72.77234672593988
2A. COMISARÍA DE LOS LAGOS,"Quinchilca 138, 5100000 Los Lagos, Los Ríos Region, Chile",-39.8622674,-72.81249579999997
RETEN ANTILHUE,"Luis Herrera, 5100000 Los Lagos, Los Ríos Region, Chile",-39.80482913318956,-72.96086441410762
RETEN RIÑIHUE,"Calle Choshuenco, 4930000 Los Lagos, Los Ríos Region, Chile",-39.819930112367075,-72.4428055603799
TENENCIA MAFIL,"Acceso Sur a Máfil 679, 5200016 Máfil, Los Ríos Region, Chile",-39.6667383,-72.9475917
RETEN MEHUIN,"Los Notros 9, 5110000 Mariquina, Los Ríos Region, Chile",-39.4311276,-73.21321669999998
TENENCIA SAN JOSE DE LA MARIQUINA,"Alejo Carrillo 140, 5100000 Mariquina, Los Ríos Region, Chile",-39.540686684566694,-72.96076841035563
RETEN PICHIRROPULLI,"Ruta T-676, 5220000 Paillaco, Los Ríos Region, Chile",-40.1498476,-72.8925312
RETEN REUMEN,"12 de Octubre 10, 5220000 Paillaco, Los Ríos Region, Chile",-39.9875944,-72.8333933
SUBCOMISARÍA PAILLACO,"Manuel Rodríguez 979, 5230035 Paillaco, Los Ríos Region, Chile",-40.069404123140615,-72.87333304770044
5A COMISARIA PANGUIPULLI,"Bernardo O'Higgins 203, 4930000 Panguipulli, Los Ríos Region, Chile",-39.64149652223758,-72.33686537238503
RETEN CHOSHUENCO,"Avenida San Martín 85, 4930000 Panguipulli, Los Ríos Region, Chile",-39.8374853,-72.0837363
RETEN COÑARIPE,"Guido Beck de Ramberga, 4930000 Panguipulli, Los Ríos Region, Chile",-39.56658655655875,-72.00847010376145
RETEN MALALHUE,"Manuel Rodríguez 118, 4930000 Lanco, Los Ríos Region, Chile",-39.54444397964901,-72.50283981646442
RETEN NELTUME,"Ruta 203 CH, 4930000 Panguipulli, Los Ríos Region, Chile",-39.85111447080176,-71.94729402926077
TENENCIA LIQUIÑE (F),"Ruta 201 CH, 4930000 Panguipulli, Los Ríos Region, Chile",-39.7474773865788,-71.85552678648997
TENENCIA PIRIHUEICO (F),"Ruta 203 CH, Panguipulli, Los Ríos Region, Chile",-40.0969537,-71.6782753
RETEN VIVANCO,"Ruta T-849, 5220000 Río Bueno, Los Ríos Region, Chile",-40.3749828,-72.6212017
RETEN CARIMALLIN,"Ruta T-931, 5310000 Río Bueno, Los Ríos Region, Chile",-40.55528711238056,-72.77400062645876
RETEN DIUMEN,"Ruta T-851, 5220000 Río Bueno, Los Ríos Region, Chile",-40.3074922,-72.6923784
RETEN MANTILHUE,"Ruta T-985, 5310000 Río Bueno, Los Ríos Region, Chile",-40.6203806,-72.4928375
4A. COMISARÍA DE RIO BUENO,"Avenida Arturo Prat 702, 5220000 Río Bueno, Los Ríos Region, Chile",-40.335519828812615,-72.95797663137444
1A COMISARIA VALDIVIA,"Beauchef 1022, 5110672 Valdivia, Los Ríos Region, Chile",-39.81726915970233,-73.23542486088286
TENENCIA MOGOLLONES,"Donald Canter 4005, 5100000 Valdivia, Los Ríos Region, Chile",-39.83234830820803,-73.20160476190188
PREFECTURA VALDIVIA N° 3,"Beauchef 1042, 5110643 Valdivia, Los Ríos Region, Chile",-39.8170686,-73.2352862
RETEN ISLA TEJAS,"Los Boldos 415, 5110523 Valdivia, Los Ríos Region, Chile",-39.81498256230699,-73.25817639140166
RETEN PUNUCAPA,"Ruta T-360, 5110000 Valdivia, Los Ríos Region, Chile",-39.75677279593587,-73.2644276183853
SUBCOMISARÍA GENERAL OSCAR CRISTI GALLO,"Avenida Francia 2950, 5090527 Valdivia, Los Ríos Region, Chile",-39.83826210542166,-73.22771061925783
6TA COMISARÍA FF.EE VALDIVIA,"Avenida Balmaceda 5340, 5111837 Valdivia, Los Ríos Region, Chile",-39.8063649,-73.2091137
TENENCIA LOS JAZMINES,"Honduras 312, 5100103 Valdivia, Los Ríos Region, Chile",-39.82099584972782,-73.21111896071318
RETEN NIEBLA,"Del Castillo 1105, 5110000 Valdivia, Los Ríos Region, Chile",-39.86907810393791,-73.39951744047545
1A. COMISARIA ARICA,"Doctor Juan Noé 901, 1002429 Arica, Arica and Parinacota Region, Chile",-18.478146004182744,-70.31177098031861
3A. COMISARIA ARICA,"Avenida Loa 1475, 1020308 Arica, Arica and Parinacota Region, Chile",-18.47040875241227,-70.29380580758743
PREFECTURA DE ARICA Nª 1,"Doctor Juan Noé 799, 1000389 Arica, Arica and Parinacota Region, Chile",-18.4782549,-70.31214469999998
RETEN CENTRAL (F),"Arica, Chile",-18.3616966,-69.9592906
RETEN POCONCHILE (F),"Ruta 11 CH KM 27, Arica, Arica and Parinacota Region, Chile",-18.4524218,-70.0665484
RETEN SAN MIGUEL DE AZAPA,"Ruta A-27 4160, 1020000 Arica, Arica and Parinacota Region, Chile",-18.51897806293018,-70.17967852141106
4A. COMISARÍA CHACALLUTA,"Ruta 5 Norte KM 2086, Arica, Arica and Parinacota Region, Chile",-18.36191344853394,-70.30443952073131
SUBCOMISARÍA CHINCHORRO NORTE,"Andalién 837, 1032369 Arica, Arica and Parinacota Region, Chile",-18.44581562285155,-70.29274251204544
SUBCOMISARÍA I.A.T. ARICA,"18 de Septiembre 1955, 1001194 Arica, Arica and Parinacota Region, Chile",-18.485947,-70.30015700000001
XV ZONA DE CARABS. ARICA PARINACOTA,"Doctor Juan Noé 784, 1000389 Arica, Arica and Parinacota Region, Chile",-18.4784361,-70.3119851
5TA COMISARIA CONTROL ORDEN PUBLICO,"18 de Septiembre 947, 1000800 Arica, Arica and Parinacota Region, Chile",-18.48226461556373,-70.31345361166993
TENENCIA CARRETERA ARICA,"Ruta 5 Norte, 1010000 Camarones, Arica and Parinacota Region, Chile",-19.160450675991168,-70.17953765621132
RETEN CODPA,"7 de Junio, 1020000 Camarones, Arica and Parinacota Region, Chile",-18.8337183,-69.7443063
RETEN ALCERRECA (F),"Gobernador Cobo, 1030000 General Lagos, Arica and Parinacota Region, Chile",-17.992324400000008,-69.66041442698366
RETEN TACORA (F),"Ruta A-23, 1030000 General Lagos, Arica and Parinacota Region, Chile",-17.771952048423394,-69.72440395152057
TENENCIA VISVIRI (F),"Ruta Andina, General Lagos, Arica and Parinacota Region, Chile",-17.5947692,-69.47701059999997
TENENCIA CARRETERA ARICA,"Ruta 5 Norte, 1010000 Camarones, Arica and Parinacota Region, Chile",-19.160535,-70.179647
2A. COMISARIA PUTRE,"Riquelme 298, 1020000 Putre, Arica and Parinacota Region, Chile",-18.195015535820573,-69.55919828257527
RETEN CAQUENA (F),"Carlos Ibañez del Campo, 1020000 Putre, Arica and Parinacota Region, Chile",-18.0545512,-69.20182349999999
RETEN CHAPIQUIÑA,"Ruta A-31, 1020000 Putre, Arica and Parinacota Region, Chile",-18.3720034,-69.54848379999999
RETEN CHILCAYA (F),"Ruta A-253, 1020000 Putre, Arica and Parinacota Region, Chile",-18.7939355,-69.08467740000003
RETEN CHUCUYO (F),"Ruta 11 CH, 1020000 Putre, Arica and Parinacota Region, Chile",-18.2186761,-69.3215479
RETEN GUALLATIRE (F),"Ruta Andina, 1020000 Putre, Arica and Parinacota Region, Chile",-18.4973822,-69.1545443
TENENCIA CHUNGARA (F),"Ruta 11 CH, 1020000 Putre, Arica and Parinacota Region, Chile",-18.2816721,-69.1382498
3A. COMISARÍA DE BULNES,"Vicente Tupper 49, 3930204 Bulnes, Ñuble Region, Chile",-36.738899955477955,-72.29753904365532
RETEN SANTA CLARA,"Caletera Ruta 5, 3820000 Bulnes, Ñuble Region, Chile",-36.82348101171945,-72.32880969391783
2A. COMISARÍA DE CHILLÁN,"Vega de Saldías 368, 3800543 Chillán, Ñuble Region, Chile",-36.60298948665496,-72.10506631635826
PREFECTURA ÑUBLE N° 27,"Vega de Saldías 368, 3800543 Chillán, Ñuble Region, Chile",-36.6029822,-72.1050304
RETEN EL ROBLE (TF),"San Fabián, Chile",-36.7438024,-71.258992
RETEN QUINCHAMALI,"Camino Real, 3780000 Chillán, Ñuble Region, Chile",-36.6512035,-72.41293200000001
SUBCOMISARÍA HUAMBALI,"Caupolicán 1458, 3790786 Chillán, Ñuble Region, Chile",-36.626440387197874,-72.09328716256562
TENENCIA CHILLAN ORIENTE,"Avenida Nueva Oriente 610, 3810000 Chillán, Ñuble Region, Chile",-36.614405981051995,-72.07572176472901
RETEN BONILLA,"El Nevado 1096, 3811904 Chillán, Ñuble Region, Chile",-36.60763718210024,-72.075867377095
6A COMISARIA DE CHILLAN VIEJO,"Avenida Libertador Bernardo O'Higgins 2804, 3820018 Chillán Viejo, Ñuble Region, Chile",-36.62169686243409,-72.134065651392
RETEN RUCAPEQUEN,"Avenida Rucapequén, 3820000 Chillán Viejo, Ñuble Region, Chile",-36.672294,-72.2793388
5A. COMISARÍA QUIRIHUE,"Esmeralda 735, 3690000 Quirihue, Ñuble Region, Chile",-36.28194286996756,-72.53987235767215
RETEN ÑINQUIHUE,"Camino Lateral Ruta 5, 384 San Carlos, Ñuble Region, Chile",-36.47749499740274,-72.0141721507178
1A. COMISARÍA DE SAN CARLOS,"Avenida Vicuña Mackenna 134, 3840066 San Carlos, Ñuble Region, Chile",-36.4233306,-71.96247
RETEN CACHAPOAL,"Avenida Independencia, 3840000 San Carlos, Ñuble Region, Chile",-36.45562969679576,-71.76701029499617
RETEN CAMPANARIO,"Los Amores 433, 4450000 Yungay, Ñuble Region, Chile",-37.1343113,-72.18829579999999
4A. COMISARÍA YUNGAY,"Tacna 34, 4450000 Yungay, Ñuble Region, Chile",-37.1181683,-72.0194057
RETEN ÑIQUEN,"La Cruzada, 3630000 Ñiquén, Ñuble Region, Chile",-36.2907443,-71.8972115
TENENCIA SAN GREGORIO,"Avenida Estado 298, 3630000 Ñiquén, Ñuble Region, Chile",-36.2820674,-71.81504210000003
RETEN ÑINHUE,"Esmeralda 501, 3780000 Ninhue, Ñuble Region, Chile",-36.3944917731666,-72.39716071797602
RETEN PORTEZUELO,"O'Higgins 507, 3960000 Portezuelo, Ñuble Region, Chile",-36.52798487553288,-72.42720120031322
RETEN ÑIPAS,"Barros Luco 598, 3780000 Ránquil, Ñuble Region, Chile",-36.60621347472763,-72.53424739456051
RETEN TREHUACO,"Gonzalo Urrejola 593, Treguaco, Ñuble Region, Chile",-36.4306010875635,-72.66779014142298
TENENCIA QUILLON,"El Roble 203, 3940314 Quillón, Ñuble Region, Chile",-36.74367912024708,-72.47699540526281
RETEN SAN NICOLAS,"Arturo Prat 202, 3780000 San Nicolás, Ñuble Region, Chile",-36.50296657643366,-72.21358145551255
SUBCOMISARIA CARRETERAS I.A.T. ÑUBLE,"Ruta 5 Sur, San Nicolás, Ñuble Region, Chile",-36.541513642614056,-72.08835853106405
SUBCOMISARÍA SAN FABIAN (F),"Avenida Los Andes 373, 3840000 San Fabián, Ñuble Region, Chile",-36.5599459,-71.54852490000002
RETEN RECINTO,"Ruta N-55, 3790000 Pinto, Ñuble Region, Chile",-36.8457151349076,-71.65819841224925
TENENCIA LAS TRANCAS (F),"Ruta N-55, 3790000 Pinto, Ñuble Region, Chile",-36.91109964124428,-71.47974638035657
TENENCIA PINTO,"Ernesto Riquelme 50, 3880000 Pinto, Ñuble Region, Chile",-36.7020816,-71.8926639
TENENCIA PEMUCO,"Miraflores 696, 3820000 Pemuco, Ñuble Region, Chile",-36.9786511,-72.0972595
TENENCIA EL CARMEN,"Esmeralda 1, 3790000 El Carmen, Ñuble Region, Chile",-36.8988396,-72.03220909999999
RETEN QUIRIQUINA,"San Luis, 3820000 San Ignacio, Ñuble Region, Chile",-36.84076632920189,-72.1013752624578
RETEN SAN IGNACIO,"Avenida Manuel Rodríguez 694, 3790000 San Ignacio, Ñuble Region, Chile",-36.80208749210748,-72.02888743862303
RETEN SAN MIGUEL,"Calle Pintor Ramón Toro Gutiérrez 659, 3790000 San Ignacio, Ñuble Region, Chile",-36.81392671485646,-71.96735106871722
RETEN CATO,"Ruta N-45, 3840000 Coihueco, Ñuble Region, Chile",-36.5435377,-71.77945060000002
RETEN TANILVORO,"Ruta N-545, 3790000 Coihueco, Ñuble Region, Chile",-36.7266503,-71.8208608
SUBCOMISARÍA COIHUECO,"San Martín 1598, 3810000 Coihueco, Ñuble Region, Chile",-36.62893482780371,-71.83940962511218
RETEN COBQUECURA,"Arturo Prat, 3690000 Cobquecura, Ñuble Region, Chile",-36.13074383820527,-72.79454505929073
RETEN GUARILIHUE,"Ruta N-170, 4160000 Coelemu, Ñuble Region, Chile",-36.56943985187903,-72.69980945767213
RETEN VEGAS DE ITATA,"Lavín, 4160000 Coelemu, Ñuble Region, Chile",-36.4020965,-72.8512911
SUBCOMISARÍA COELEMU,"Exequiel Larenas 810, 4160000 Coelemu, Ñuble Region, Chile",-36.48626763779219,-72.70043184292223
