Nombre,Direccion,Telefono,Latitud,Longitud
Brigada de Investigación Criminal Arica,Calle Belén N° 1651. Arica,58 - 257 07 03 / 58 - 257 07 01,-18.4770030272725,-70.2956411517238
Brigada Investigadora de Robos Arica,Calle Belén N°1651,58 -226 66 10,-18.4770030272725,-70.2956411517238
Brigada de Homicidios Arica,Calle Belén N°1651,58 -257 07 09,-18.4770030272725,-70.2956411517238
Brigada Investigadora de Delitos Sexuales Arica,Calle Belén N°1651,58 -257 07 15 / 58 - 257 07 01,-18.4770030272725,-70.2956411517238
Brigada Antinarcóticos y Contra el Crimen Organizado Arica,"Calle Belén N°1651, Arica",58 -257 07 27,-18.4770030272725,-70.2956411517238
Avanzada Antinarcóticos Chacalluta,Ruta Internacional CH 5 Km 2.098,58 -257 09 61,-30.0287514919910,-70.6915971158211
Brigada Investigadora de Delitos Económicos Arica,Calle Belén N°1651,58 - 257 07 10/58 - 257 07 12,-18.4770030272725,-70.2956411517238
Brigada Investigadora de Delitos Contra el Medio Ambiente y Patrimonio Cultural Arica,Calle Belén N°1651,58 -2 57 07 18,-18.4770030272725,-70.2956411517238
Laboratorio de Criminalística Arica,"Angamos 990, Arica",58 -257 08 47,-18.4787230275537,-70.3110811519767
Prefectura Migraciones y Policía Internacional Arica,"Angamos 990, Arica",58 -2 25 03 77,-18.4787230275537,-70.3110811519767
Brigada Investigadora de Trata de Personas Arica,"Belén 1651 tercer piso,  Arica",58 -257 07 11,-18.4770030272725,-70.2956411517238
Brigada Investigadora de Delitos en Recintos Portuarios Iquique,Jorge Barrera N°62,57 - 224 77 26/57 - 224 77 27,-20.210284761996494, -70.15595223757211
Brigada Investigadora de Robos Iquique,"Barros Arana 1099, Iquique",57 - 224 76 73,-20.2184033125830,-70.1476611492992
Brigada de Homicidios Iquique,"Salvador Allende 2901, Iquique",57 - 224 75 20,-20.2408333162590,-70.1347211490874
Brigada de Investigación Criminal Iquique,"Barros Arana 1099, Iquique",57 - 224 76 80,-20.2184033125830,-70.1476611492992
Departamento de Migraciones y Policía Internacional Iquique,"Salvador Allende 2901, Iquique",57- 243 80 06,-20.2408333162590,-70.1347211490874
Brigada Antinarcóticos y Contra el Crimen Organizado Iquique,"Salvador Allende 2901, Iquique",57 - 224 75 27,-20.2408333162590,-70.1347211490874
Brigada Investigadora de Delitos Sexuales Iquique,"Barros Arana 1699, Iquique",57 - 224 7704,-20.2242133135360,-70.1479211493035
Laboratorio de Criminalística Cobertura Zona Norte Iquique,"Salvador Allende 2901, Iquique",57 - 224 75 38,-20.2408333162590,-70.1347211490874
Brigada de Delitos Económicos Iquique,"Barros Arana 1099, Iquique",57 - 224 76 70,-20.2184033125830,-70.1476611492992
Brigada de Investigación Criminal Alto Hospicio,"Las Américas 4190, Alto Hospicio",57 - 224 76 24,-20.2881523324010,-70.1034811485754
Brigada Investigadora de Trata de Personas,"Las Américas 4190, Alto Hospicio",57 - 224 76 43,-20.2881523324010,-70.1034811485754
Laboratorio de Criminalística Regional Antofagasta,"Pje. Abaroa 2768, Antofagasta",55-244 14 33,-23.6447438739554,-70.3975711533938
Brigada de Investigación Criminal Antofagasta,"Pje. Abaroa 2768, Antofagasta",55-244 14 42,-23.6447438739554,-70.3975711533938
Brigada Investigadora de Robos Antofagasta,"Pje. Abaroa 2768, Antofagasta",55-244 14 03,-23.6447438739554,-70.3975711533938
Brigada de Homicidios Antofagasta,"Pje. Abaroa 2768, Antofagasta",55-244 15 01,-23.6447438739554,-70.3975711533938
Brigada Investigadora de Delitos Sexuales Antofagasta,"Pje. Abaroa 2768, Antofagasta",55 2441514,-23.6447438739554,-70.3975711533938
Brigada Antinarcóticos  y Contra el Crimen Organizado Antofagasta,"Pje. Abaroa 2768, Antofagasta",55-244 14 77,-23.6447438739554,-70.3975711533938
Brigada Antinarcóticos Calama,"Granaderos 2197, Calama",55-244 15 64,-22.4591036797004,-68.9283711293224
Brigada de Investigación Criminal Calama,"Granaderos 2197, Calama",55-244 15 73,-22.4591036797004,-68.9283711293224
Brigada de Investigación Criminal Tocopilla,"21 de mayo n°1299, Tocopilla",55-244 1664,-22.0887183619015,-70.1960671150092
Brigada Investigadora de Delitos Contra el Medioambiente y Patrimonio Antofagasta,"Washington Nº 2438, Antofagasta",55-2 44 1410 / 55-2 44 1489,-23.6475638744173,-70.4000011534337
Brigada de Investigación Criminal Copiapó,"Atacama 1098, Copiapó",52-254 07 12,-27.3721544846543,-70.3289115226884
Departamento de Migraciones y Policía Internacional,"Av. Los Carrera N°691, segundo piso, Copiapó",52-259 08 47,-27.3758644852624,-70.3164311520644
Laboratorio de Criminalística Regional Copiapó,"Atacama 1098, Copiapó",52-254 08 48,-27.3721544846543,-70.3289115226884
Brigada Antinarcóticos  y Contra el Crimen Organizado Copiapó,"Atacama 1098, Copiapó",52-254 07 09,-27.3721544846543,-70.3289115226884
Brigada Investigadora de Delitos Económicos Copiapó,"Atacama 1098, Copiapó",52-254 07 18,-27.3721544846543,-70.3289115226884
Brigada Investigadora de Delitos Sexuales Copiapó,"Atacama 1098, Copiapó",52-254 07 51 / 52-254 07 12,-27.3721544846543,-70.3289115226884
Brigada Investigadora de Robos Copiapó,"Atacama 1098, Copiapó",52-254 07 52,-27.3721544846543,-70.3289115226884
Brigada Investigadora de Medio Ambiente y Patrimonio Cultural,"Av Los Carrera 691, segundo piso, Copiapó",52-259 08 47,-27.3660844836601,-70.3313311523085
Brigada de Investigación Criminal Chañaral,"Merino Jarpa 1400, Chañaral",52-254 08 71,-26.3422743159184,-70.6192411570257
Departamento de Migraciones y Policía Internacional Chañaral,"Merino Jarpa 1400, Chañaral",52-254 08 73,-26.3422743159184,-70.6192411570257
Brigada de Investigación Criminal Vallenar,"Merced 620, Vallenar",51-251 02 14,-28.5735146814840,-70.7612511593524
Departamento de Migraciones y Policía Internacional Vallenar,"Merced 620, Vallenar",51-251 02 15,-28.5735146814840,-70.7612511593524
Brigada de Investigación Criminal La Serena,"Anfión Muñoz 700, La Serena",51- 267 10 28,-29.9088734900269,-71.2496091167353
Departamento de Migraciones y Policía Internacional La Serena,"Balmaceda 1010, La Serena",51- 267 1161,-29.9089649002855,-71.2498911673582
Brigada Antinarcóticos  y Contra el Crimen Organizado La Serena,"Anfión Muñoz 700, La Serena",51 -267 10 28,-29.9088734900269,-71.2496091167353
Brigada de Delitos Económicos La Serena,"Anfión Muñoz 700, La Serena",51 - 267 1028,-29.9088734900269,-71.2496091167353
Brigada de Delitos Sexuales La Serena,"Anfión Muñoz 700, La Serena",569 -4207 26 93,-29.9088734900269,-71.2496091167353
Brigada de Homicidios La Serena,"Calle Aníbal Pinto N° 400, Coquimbo",51 - 267 11 97,-29.9551490784964,-71.3396116882810
Brigada Investigadora de Robos La Serena,"Calle Aníbal Pinto N° 400, Coquimbo",51 - 267 11 97,-29.9551490784964,-71.3396116882810
Brigada de Investigación Criminal Coquimbo,"Calle Aníbal Pinto N° 400, Coquimbo",51 - 267 11 97,-29.9551490784964,-71.3396116882810
Brigada de Investigacion Criminal Illapel,"Freire 277, Illapel",53 - 26 73 501,-31.6315175182507,-71.1674611660077
Brigada de Investigacion Criminal Los Vilos,"Av. Caupolicán 1550, Los Vilos",53 - 24 21 551,-31.9108752282785,-71.4977911714199
Brigada Antinarcóticos y Contra el Crimen Organizado Los Vilos,"Av. Caupolicán 1550, Los Vilos",53 - 24 21 551,-31.9108752282785,-71.4977911714199
Brigada de Investigación Criminal Ovalle,"Miguel Aguirre 641, Ovalle",53 - 267 35 29,-30.6068501462171,-71.2007116655335
Brigada de Investigación Criminal Vicuña,"Avenida Las delicias 748, Vicuña",51 - 26 71 264,19.9839643274172,-102.271062167560
Brigada de Investigación Criminal Valparaíso,"Tupungato N° 3850, Placilla, Valparaíso",32-331 15 57,-32.4478795316260,-71.2850341167934
Brigada de Investigación Criminal Isla de Pascua,"Mataveri S/N, Isla de Pascua",32-331 17 86,-27.1597284449849,-109.439128179305
Brigada Antinarcóticos  y Contra el Crimen Organizado Valparaíso,"Tupungato N° 3850, Placilla, Valparaíso",32-331 15 05,-32.4478795316260,-71.2850341167934
Brigada de Homicidios Valparaíso,"Tupungato N° 3850, Placilla, Valparaíso",32-331 18 19,-32.4478795316260,-71.2850341167934
Brigada de Delitos Económicos Valparaíso,"Tupungato N° 3850, Placilla, Valparaíso",32-331 15 55,-32.4478795316260,-71.2850341167934
Brigada de Delitos Sexuales Valparaíso,"Tupungato N° 3850, Placilla, Valparaíso",32-331 15 12,-32.4478795316260,-71.2850341167934
Brigada de Robos Valparaíso,"Tupungato N° 3850, Placilla, Valparaíso",32-331 15 40,-32.4478795316260,-71.2850341167934
Brigada de Delitos en Recintos Portuarios Valparaíso,"Tupungato N° 3850, Placilla, Valparaíso",32-331 15 50,-32.4478795316260,-71.2850341167934
Brigada Investigadora del Ciber Crimen Valparaíso,"Tupungato N° 3850, Placilla, Valparaíso",32-331 14 71,-32.4478795316260,-71.2850341167934
Departamento de Migraciones y Policía Internacional Valparaíso,"Uruguay 174, Valparaíso",32-331 14 43 (reserva de hora) - 32-331 14 44 (oficina),-33.0454385414164,-71.6080801173226
Centro de Atención a Víctimas de Atentados Sexuales V Región,"Av. Ecuador 251, of. 21, Viña del Mar",32-331 17 79,-33.0244354107235,-71.5598311724362
Brigada de Investigación Criminal Viña del Mar,"Los Acacios N° 2140, Miraflores Bajo, Viña del Mar",32-331 16 06,-33.0287454114291,-71.5311311719661
Departamento de Extranjería y Policía Internacional Viña del Mar,"Los Acacios N° 2140, Miraflores Bajo, Viña del Mar",32-331 16 52,-33.0287454114291,-71.5311311719661
Brigada de Investigación Criminal Quintero,"Vicuña Mackenna 1360, Quintero",32-331 16 93,-32.7724685369441,-71.5347701172025
Brigada de Investigación Criminal Quilpué,"Manuel Rodríguez 625, Quilpué",32-331 17 16,-33.0457654142181,-71.4466611705822
Brigada de Investigación Criminal Villa Alemana,"Calle Victoria 0409, Villa Alemana",32-331 17 45,-33.0458795414236,-71.3591741169148
Brigada de Investigación Criminal Limache,"República 430, Limache",33-234 44 00,-33.0028254071829,-71.2639111675880
Brigada de Investigación Criminal Quillota,"Concepción 161, Quillota",33-234 44 26,-32.8807953871891,-71.2449811672777
Brigada de Investigación Criminal La Calera,"Diego Lillo 573, La Calera",33-234 44 53,-32.7845371463270,-71.1926111664198
Brigada Antinarcóticos y Contra el Crimen Organizado La Calera,"Diego Lillo 573, La Calera",33-234 44 54,-32.7845371463270,-71.1926111664198
Brigada de Investigación Criminal San Antonio,"21 de Mayo N°712, San Antonio",35-237 41 06,29.4251748210200,-98.4946131613735
Brigada de Homicidios San Antonio,"21 de mayo 712, San Antonio",35-237 41 06,-33.5822625502117,-71.6029081173142
Brigada Antinarcóticos y Contra el Crimen Organizado San Antonio,"21 de Mayo N°712, San Antonio",35-237 41 06,29.4251748210200,-98.4946131613735
Departamento de Migraciones y Policía Internacional San Antonio,"21 de Mayo N°712, San Antonio",35-237 41 06,29.4251748210200,-98.4946131613735
Brigada de Investigación Criminal Los Andes,"O'Higgins 475, Los Andes",34-239 57 13,-32.8337537947848,-70.5997011567054
Brigada Antinarcóticos y Contra el Crimen Organizado Los Andes,"O'Higgins 475, Los Andes",34-239 57 19,-32.8337537947848,-70.5997011567054
Brigada de Homicidios Los Andes,"O'Higgins 475, Los Andes",34-239 57 46,-32.8337537947848,-70.5997011567054
Brigada de Delitos Económicos Los Andes,"O'Higgins 475, Los Andes",34-239 57 44,-32.8337537947848,-70.5997011567054
Brigada Investigadora de Robos Concón,"Avenida Magallanes 633, Concón",32 - 331 18 11,-32.9283253949766,-71.5199511717829
Brigada de Delitos Sexuales Los Andes,"O'Higgins 475, Los Andes",34-239 57 45,-32.8337537947848,-70.5997011567054
Brigada de Robos Los Andes,"O'Higgins 475, Los Andes",34-239 57 37,-32.8337537947848,-70.5997011567054
Departamento de Migraciones y Policía Internacional Los Andes,"O'Higgins 475, Los Andes",34-239 57 06,-32.8337537947848,-70.5997011567054
Brigada de Investigación Criminal San Felipe,"Freire 0911, San Felipe",34-239 57 00,-32.7525675366180,-70.7247481158754
Brigada de Investigación Criminal La Ligua,"Prat 198, La Ligua",33-234 44 85,-32.4493053164940,-71.2289811670156
Brigada de Investigación Criminal Costa Norte,"Calle Orella 103, Papudo",33-234 44 78,-32.5030345325297,-71.4544441170709
Avanzada Los Libertadores,"O'Higgins 475, Los Andes",34-240 90 11,-32.8337537947848,-70.5997011567054
Brigada Investigadora de Delitos Contra el Medioambiente y Patrimonio Cultural Valparaíso,"Tupungato N°3850, Placilla, Valparaíso",32 331 15 67,-32.4478795316260,-71.2850341167934
Brigada Investigadora del Cibercrimen Metropolitana,Av. del Parque N° 5045,+562 2 7080658,-33.3888554704303,-70.6158611569702
Brigada de Investigación Criminal Lampa,"Trincaco poniente 2150, Lampa",2- 2708 21 04,-33.2948054550216,-70.8806511613087
Brigada de Investigación Criminal Cerrillos,"Calle Francia 4040, Cerrillos",2- 2708 30 33,-33.4802548541186,-70.7201501158678
Brigada de Investigación Criminal Santiago,"General Borgoño 1204, piso 3, Independencia",2- 2708 18 22,-33.4305454772610,-70.6557411576236
Brigada de Investigación Criminal Independencia,"General Borgoño 1204, piso 5, Independencia",2- 2708 18 08,-33.4305454772610,-70.6557411576236
Brigada de Investigación Criminal Conchalí,"Calle del verano N° 1406, Huechuraba",2- 2708 32 98,-33.3464854634877,-70.6708911578719
Brigada de Investigación Criminal Colina,"El Tranque 0100, Población el Roble, Colina",2- 2708 32 72 / 2- 2708 32 73,-33.2119265441441,-70.6794091158011
Brigada de Investigación Criminal Renca,"Apostol Santiago 1672, Renca",2- 2708 35 47,-33.4022854726298,-70.6971311583018
Brigada de Investigación Criminal Quinta Normal Cerro Navia,Doctor Lucas Sierra N° 4112 Quinta Normal,2- 2708 35 22,-33.4269705476674,-70.6907981158198
Brigada de Investigación Criminal Providencia,"José Manuel Infante 820, Providencia",2- 2708 29 83,-33.4387654786079,-70.6214111570613
Brigada de Investigación Criminal Las Condes,"Vicente Huidobro 191, Las Condes",2- 2708 29 19 / 2- 2708 29 20,-33.3973054718143,-70.5528711559383
Brigada de Investigación Criminal La Florida,"José Miguel Carrera 475, La Florida",2- 2708 33 23 / 2- 2708 33 24,-33.5501654968596,-70.5814911564071
Brigada de Investigación Criminal Peñalolén,"Calle El Lago 5720, Peñalolén",2- 2708 34 73 / 2- 2708 34 74,-33.4715483991859,-70.5763111563223
Brigada de Investigación Criminal Lo Barnechea,"Av. El Rodeo 13326, Lo Barnechea",2- 2708 33 71 / 2 -2708 33 73,-33.3516654643372,-70.5129611552843
Brigada de Investigación Criminal Macul,"San Vicente de Paul 4343, Macul",2- 2708 24 27 / 2- 2708 24 31,-33.4947654877818,-70.5879711565134
Brigada de Investigación Criminal San Miguel,"San Nicolás N°1085, San Miguel",2- 2708 31 58,13.4812692208771,-88.1777721444704
Brigada de Investigación Criminal La Cisterna,"Fernández Albano 172, La Cisterna",2- 2708 30 56,-33.5237454925304,-70.6580311576611
Brigada de Investigación Criminal José María Caro,"Av. Obispo Javier Vásquez 6969, José María Caro, Lo Espejo",2- 2708 33 98,-33.5112549047762,-70.6876211581461
Brigada de Investigación Criminal Puente Alto,"Ernesto Alvear 165, Puente Alto",2- 2708 34 96 / 2- 2708 34 97,-33.6060355060124,-70.5793211563716
Brigada de Investigación Criminal San Ramón,"San Nicolás 1085, San Miguel",2- 2708 31 58,-33.4994254885465,-70.6529311575777
Brigada de Investigación Criminal La Pintana,"Av. Santa Rosa 13129, La Pintana",2- 2708 33 48,-33.5868855028749,-70.6290911571871
Brigada de Investigación Criminal Maipú,"Monumento Nº 2450, Maipú",2- 2708 31 13,-33.5094415490186,-70.7561791159269
Brigada de Investigación Criminal Pudahuel,"Federico Errazuriz 921, Pudahuel",2- 2708 27 42,-33.4391554786715,-70.7635611593902
Brigada de Investigación Criminal Talagante,"Av. Bernardo O'Higgins 451, Talagante",2- 2708 12 63,-33.6606755149646,-70.9209111619682
Brigada de Investigación Criminal Melipillla,"Silva Chavez 1139, Melipilla",2- 2708 34 28,-33.6944255204944,-71.2172411668234
Brigada de Investigación Criminal Peñaflor,"Vicuña Mackenna 1910, Peñaflor",2- 2708 34 48,-33.6108855068079,-70.8781411612675
Brigada de Investigación Criminal Buin,"Av. Bajos de Matte 02, Buin",2- 2708 32 51,-33.7021655217623,-70.7481211591373
Brigada de Investigación Criminal San Bernardo,"Eyzaguirre 737, San Bernardo",2- 2708 35 72,-33.5967555044919,-70.7070111584637
Brigada Investigadora de Delitos Sexuales Metropolitana,Williams Rebolledo 1799,2- 2708 20 52,-33.4721254840721,-70.6203111570432
Departamento de Migraciones y Policía Internacional Rancagua,"Florencio Durán 580, Rancagua",72 - 234 10 34,-34.1515155953842,-70.7395211589964
Brigada de Delitos Económicos Rancagua,"Florencio Durán 580, Rancagua",72 - 234 10 34,-34.1515155953842,-70.7395211589964
Brigada de Homicidios Rancagua,"Florencio Durán 580, Rancagua",72 - 234 10 34,-34.1515155953842,-70.7395211589964
Brigada de Delitos Sexuales Rancagua,"Florencio Durán 580, Rancagua",72 - 234 10 09,-34.1515155953842,-70.7395211589964
Brigada Investigadora de Robos Mostazal,"Camino Real N°120 (Ruta H-10), San Francisco de Mostazal",72- 234 10 87,-33.9855755681972,-70.7133211585671
Brigada Antinarcóticos y Contra el Crimen Organizado Rancagua,"Florencio Durán 580, Rancagua",72 - 234 10 34,-34.1515155953842,-70.7395211589964
Brigada de Investigación Criminal Rengo,"Av. Bisquertt, Rengo",72 - 234 11 91,-34.4058563705741,-70.8693711611239
Brigada de Investigación Criminal San Fernando,"Olegario Lazo 496, San Fernando",72 - 234 11 63,-34.5878566686777,-70.9927411631451
Departamento de Migraciones y Policía Internacional San Fernando,"Olegario Lazo 496, San Fernando",72 - 234 11 63,-34.5878566686777,-70.9927411631451
Brigada de Investigación Criminal Santa Cruz,"Calle Orlando Diaz Besoain N° 410, Santa Cruz",72 - 234 12 17,-34.6387435675211,-71.3675301169285
Brigada de Investigación Criminal Pichilemu,"Av. Anibal Pinto N°433, Pichilemu",72 - 234 12 17,-34.3881705634157,-72.0079741179778
Brigada de Investigación Criminal San Vicente de Tagua Tagua,"Avenida España 1260, San Vicente de Tagua Tagua",72 - 234 12 43,-34.4369756421539,-71.0818111646043
Brigada de Investigación Criminal Talca,"2 Sur 1628, Talca",71 - 253 03 09,-35.4292955804735,-71.6534501173970
Brigada Investigadora de Delitos Económicos Talca,"2 Sur 1628, Talca",71 - 253 02 29,-35.4292955804735,-71.6534501173970
Brigada de Homicidios Talca,"Calle 13 Sur N° 160, Talca",71 - 253 02 04,-35.4334005805408,-71.6802261174408
Brigada de Investigadora de Robos Talca,"2 Sur 1628, Talca",71 - 253 02 13,-35.4292955804735,-71.6534501173970
Brigada Investigadora de Delitos Sexuales Talca,"Calle 1 Poniente N° 927, Talca",71- 253 03 06,-35.4504245808197,-71.6752021174326
Departamento de Migraciones y Policía Internacional Talca,"3 Oriente 1282, Talca",71 - 253 02 90,-35.4259565804188,-71.6625511174119
Avanzada Paso Fronterizo Pehuenche,"Ruta Internacional CH-115, San Clemente",71 - 253 04 14,-35.5229845820085,-71.4868961171241
Brigada Antinarcóticos y Contra el Crimen Organizado Talca,"3 Oriente 1282, Talca",71 - 253 02 63,-35.4259565804188,-71.6625511174119
Brigada de Investigación Criminal Constitución,"O´Higgins N°575, Constitución",71 - 253 03 22,-35.3318295788766,-72.4119031186396
Sección de Migraciones y Policía Internacional Constitución,"O´Higgins N°575, Constitución",71 - 253 03 22,-35.3318295788766,-72.4119031186396
Brigada de Investigación Criminal Cauquenes,"Carrera N°298, Cauquenes",73 - 261 26 81,-35.9671285892854,-72.3154291184816
Sección de Migraciones y Policía Internacional Cauquenes,"Carrera N°298, Cauquenes",73 - 261 26 81,-35.9671285892854,-72.3154291184816
Brigada de Investigación Criminal Linares,"Valentín Letelier 417, Linares",73 - 261 05 97,-35.8485558734277,-71.5979911730615
Brigada de Delitos Sexuales Linares,"Valentín Letelier 417, Linares",73 - 261 05 97,-35.8485558734277,-71.5979911730615
Brigada Investigadora de Robos Linares,"Valentín Letelier 417, Linares",73 - 261 05 97,-35.8485558734277,-71.5979911730615
Departamento de Migraciones y Policía Internacional Linares,"Valentín Letelier 417, Linares",73 - 261 05 97,-35.8485558734277,-71.5979911730615
Brigada Investigadora de Delitos Económicos Linares,"Valentín Letelier 417, Linares",73 - 261 05 97,-35.8485558734277,-71.5979911730615
Brigada de Homicidios Linares,"Valentín Letelier 417,  Linares",73 - 261 05 97,-35.8485558734277,-71.5979911730615
Brigada Antinarcóticos y Contra el Crimen Organizado Linares,"Valentín Letelier 417, Linares",73 - 261 05 97,-35.8485558734277,-71.5979911730615
Brigada de Investigación Criminal San Javier,"Av. Chorrillos 1581, San Javier",73 - 261 05 61,-35.5775245829021,-71.7069291174846
Brigada de Investigación Criminal Curicó,"Calle Manuel Rodríguez 1041, Curicó",75 -257 58 07,-34.9793357310135,-71.2434511672527
Brigada de Delitos Sexuales Curicó,"Calle Manuel Montt 40, Curicó",75 - 257 5873,-34.9823257315042,-71.2354411671215
Brigada de Homicidios Curicó,"Calle Manuel Rodríguez 1041, Curicó",75 - 257 58 13,-34.9793357310135,-71.2434511672527
Brigada Antinarcóticos  y Contra el Crimen Organizado Curicó,"Calle Manuel Rodríguez 1041, Curicó",75 - 257 58 12,-34.9793357310135,-71.2434511672527
Departamento de Migraciones y Policía Internacional Curicó,"Calle Manuel Montt 40, Curicó",75 - 257 58 67,-34.9823257315042,-71.2354411671215
Brigada de Investigación Criminal Parral,"Calle Dieciocho N° 02, Parral",73 - 261 06 57,-36.1401785921206,-71.8322141176898
Brigada de Investigación Criminal Molina,"Calle Independencia 1964, Molina",75 - 257 58 49,-35.1144757531562,-71.2821911678874
Laboratorio de Criminalística Regional Talca,"Calle 13 Sur N° 60, Talca",71 - 253 03 74,-35.4474580770660,-71.6330641173636
Brigada Investigadora de Robos Curicó,"Calle Manuel Rodríguez N° 1041, Curicó",75 -257 58 31,-34.9793357310135,-71.2434511672527
Brigada de Investigación Criminal Chillán,"Arauco 950, Chillán",42-283 23 63,-36.6117559984703,-72.1049811813680
Brigada Investigadora de Robos Chillán,"Avenida O´Higgins Nº 1490, Chillán",42-283 23 71,-36.6066625997635,-72.1033171181340
Departamento de Migraciones y Policía Internacional Chillán,"Arauco 950, Chillán",42-283 23 63,-36.6117559984703,-72.1049811813680
Brigada de Delitos Sexuales Chillán,"Vega de Saldías 350, Chillán",42 -283 23 34 / 42 -283 23 06,-36.6028755997015,-72.1054221181375
Brigada Antinarcóticos y Contra el Crimen Organizado Chillán,"Avenida O´higgins Nº 1490, Chillán",42-283 23 71,-36.6066625997635,-72.1033171181340
Laboratorio de Criminalística Regional,"Vega de Saldías 350, Chillán",42-283 23 34,-36.6028755997015,-72.1054221181375
Departamento de Asesoría Técnica,"Vega de Saldías 350, Chillán",42-283 23 34,-36.6028755997015,-72.1054221181375
Brigada de Delitos Económicos Chillán,"Arauco 950, Chillán",42-283 23 63,-36.6117559984703,-72.1049811813680
Brigada de Homicidios Chillán,"Vega de Saldías 350, Chillán",42-283 23 34,-36.6028755997015,-72.1054221181375
Brigada de Investigación Criminal San Carlos,"General Venegas  N°494, San Carlos",42-283 24 25,37.5037346144611,-122.264930200318
Brigada de Investigación Criminal Concepción,"Angol 815, Concepción",41-286 50 28,-36.8251060334258,-73.0572211969696
Brigada de Investigación Criminal Chiguayante,"Obispo San Miguel N°1841, Chiguayante",41-286 54 81,-36.9099866047332,-73.0314301196546
Brigada de Delitos Sexuales Concepción,"Angol 815, Concepción",41 -286 50 79 / 41 -286 50 28,-36.8251060334258,-73.0572211969696
Brigada de Homicidios Concepción,"Ifarle Oriente Nº 5799, Sector Brisas del Sol, Talcahuano",41-286 52 82,-36.7805386026123,-73.0737571197240
Brigada Investigadora del Cibercrimen Concepción,"Angol 861, Concepción",41-286 51 29,-36.8249060333925,-73.0573711969719
Laboratorio de Criminalística Cobertura Zona Sur Concepción,"Angol 861, Concepción",41-286 50 42,-36.8249060333925,-73.0573711969719
Brigada Antinarcóticos y Contra el Crimen Organizado Concepción,"Enrique Soro #1520, San Pedro de la Paz, Concepción",41-286 51 37,-36.8313960344560,-73.1052411977562
Brigada de Reacción Táctica Concepción,"Enrique Soro #1520, San Pedro de la Paz, Concepción",41-286 51 37,-36.8313960344560,-73.1052411977562
Brigada Investigadora de Robos Concepción,"Michimalongo 939, San Pedro",41-286 51 01,-36.8421603621769,-73.0915611975322
Brigada Investigadora de Delitos Económicos Concepción,"Angol 885, Concepción",41-286 50 32,-36.8245660333368,-73.0575611969751
Departamento de Migraciones y Policía Internacional Concepción,"Angol 861, Concepción",41-286 50 41,-36.8249060333925,-73.0573711969719
Departamento de Migraciones y Policía Internacional Talcahuano,"Avda. Ifarle Nro. 5799, sector Brisas del Sol, comuna de Talcahuano.",41-286 52 42,-36.7805386026123,-73.0737571197240
Brigada de Investigaciones Policiales Especiales Concepción,"Ifarle Oriente Nº 5799, Sector Brisas del Sol Talcahuano",41-286 52 37,-36.7805386026123,-73.0737571197240
Brigada de Investigación Criminal Talcahuano,"Ifarle Oriente Nº 5799, Sector Brisas del Sol Talcahuano",41-286 52 31,-36.7805386026123,-73.0737571197240
Brigada de Investigación Criminal Tomé,"Mariano Egaña N°909, Tomé",41-286 54 33,-36.6170805999342,-72.9575041195335
Brigada de Investigación Criminal Coronel,"Calle Manuel Montt N°798, Coronel",41-286 54 61,-37.0136160643099,-73.1555711985809
Departamento de Migraciones y Policía Internacional Coronel,"Calle Manuel Montt N°798, Coronel",41-286 54 56,-37.0136160643099,-73.1555711985809
Brigada de Investigación Criminal Lota,"Condell 01, Lota",41-286 54 10,-37.0960686077819,-73.1569961198604
Brigada de Investigación Criminal Los Ángeles,"Av. O’Higgins 151, Los Ángeles",43-257 02 20,-36.7835026026608,-73.0830741197393
Brigada de Homicidios Los Ángeles,"Av. O’Higgins 151, Los Ángeles",43-257 02 10,-36.7835026026608,-73.0830741197393
Brigada de Delitos Sexuales Los Ángeles,"Av. O’Higgins 151, Los Ángeles",43-257 02 08,-36.7835026026608,-73.0830741197393
Brigada de Investigación Criminal Cabrero,"Río Claro 1030, Cabrero",43-257 02 73,-37.0342476067691,-72.4118081186395
Departamento de Migraciones y Policía Internacional Los Ángeles,"Av. O’Higgins 151, Los Ángeles",43-257 02 22,-36.7835026026608,-73.0830741197393
Brigada de Investigación Criminal Mulchén,"Pedro Lagos N°410, Mulchén",43- 257 03 86,-37.7200886180059,-72.2441118364787
Brigada de Investigación Criminal Lebu,"Freire 615, Lebu",41-286 53 87,-33.0464945414337,-71.4088941169963
Brigada de Investigación Criminal Cañete,"Villagrán 213, Cañete",41-286 53 07,-37.8044916193887,-73.4000111202585
Departamento de Migraciones y Policía Internacional Temuco,"Prat 19, Temuco",45 - 265 94 44,-38.7337263461339,-72.5890611892992
Brigada Investigadora de Delitos Económicos Temuco,"Prat 19, Temuco",45 - 265 94 44,-38.7337263461339,-72.5890611892992
Laboratorio de Criminalística Cobertura Zona Sur Temuco,"Prat 19, Temuco",45 - 265 94 44,-38.7337263461339,-72.5890611892992
Brigada de Homicidios Temuco,"Prat 19, Temuco",45 - 265 94 44,-38.7337263461339,-72.5890611892992
Brigada Investigadora de Robos Temuco,"Prat 19, Temuco",45 - 265 94 44,-38.7337263461339,-72.5890611892992
Brigada de Investigación Criminal Temuco,"Prat 19, Temuco",45 - 265 94 44,-38.7337263461339,-72.5890611892992
Brigada Antinarcóticos y Contra el Crimen Organizado Temuco,"Antonio Varas 459, Temuco",45 - 265 95 51,-38.7396263470993,-72.5954011894031
Brigada Investigadora de Delitos Sexuales Temuco,"Prat 19, Temuco",45 - 265 95 48,-38.7337263461339,-72.5890611892992
Brigada de Investigación Criminal de Victoria,"Baquedano Nº 845, Victoria",45 - 265 95 78,-38.2302566263645,-72.3297561185050
Brigada de Investigación Criminal Angol,"Manuel Bunster Nro. 639, Angol",45 - 265 98 18,-37.7959961924959,-72.7098411912780
Brigada Investigadora de Robos Angol,"Manuel Bunster Nro. 639, Angol",45 - 265 98 18,-37.7959961924959,-72.7098411912780
Brigada Antinarcóticos y Contra el Crimen Organizado Angol,"Manuel Bunster Nro. 639, Angol",45 - 265 98 18,-37.7959961924959,-72.7098411912780
Brigada de Investigación Criminal Traiguén,"Errázuriz 245, Traiguén",45 - 265 96 06,-38.2492062667489,-72.6649511905426
Brigada de Investigación Criminal Pitrufquén,"Vicuña Mackenna 481, Pitrufquén",45 -265 96 63,-38.9875826387725,-72.6373481190090
Brigada de Investigación Criminal Villarrica,"José Miguel Carrera 825, Villarrica",45 - 265 97 46,-39.2808164357687,-72.2355511835073
Brigada de Investigación Criminal Lautaro,"Manuel Montt 310, Lautaro",45 - 265 98 76,-38.5304996312837,-72.4347301186770
Brigada Investigadora de Delitos Contra el Medio Ambiente y Patrimonio Cultural,"Prat Nro. 19, Temuco",45 - 265 9404,-38.7337263461339,-72.5890611892992
Brigada de Investigación Criminal Valdivia,"Av. Francia 675, Valdivia",63-2 67 03 46,-39.8361506526754,-73.2195591199629
Brigada Investigadora de Robos Valdivia,"Av. Francia 675, Valdivia",63 -2 67 03 26,-39.8361506526754,-73.2195591199629
Brigada Antinarcóticos y Contra el Crimen Organizado Valdivia,"Av. Francia 675, Valdivia",63 -2 67 03 81,-39.8361506526754,-73.2195591199629
Brigada de Delitos Económicos Valdivia,"Av. Francia 675, Valdivia",63 -67 03 19,-39.8361506526754,-73.2195591199629
Brigada de Delitos Sexuales Valdivia,"Av. Francia 675, Valdivia",63 - 267 03 73,-39.8361506526754,-73.2195591199629
Brigada de Homicidios Valdivia,"Av. Francia 675, Valdivia",63 -2 67 03 49,-39.8361506526754,-73.2195591199629
Brigada Investigadora de Delitos Contra el Medio Ambiente y Patrimonio Cultural,"Av. Francia 675, Valdivia",63 -2 67 03 38,-39.8361506526754,-73.2195591199629
Brigada de Investigación Criminal la Unión,"Arturo Prat 927, La Unión",64 -2 61 08 44,-40.2919866014393,-73.0812611973635
Departamento de Migraciones y Policía Internacional,"Av. Francia 675, Valdivia",63 -2 67 04 87,-39.8361506526754,-73.2195591199629
Departamento de Asesoría Técnica Valdivia,"Av. Francia 675, Valdivia",63 -2 67 03 36/63- 2 67 03 37,-39.8361506526754,-73.2195591199629
Brigada de Investigación Criminal Puerto Montt,"Ramón Munita 536, Puerto Montt",65 -2 77 50 04,-41.4568667922928,-72.9293211948741
Departamento Migraciones y Policía Internacional Puerto Montt,"Covadonga N°85, Puerto Montt",65 -2 77 52 20,-41.4717976794739,-72.9395901195042
Brigada Antinarcóticos y Contra el Crimen Organizado Puerto Montt,"Ramón Munita 536, Puerto Montt",65 -2 77 50 04,-41.4568667922928,-72.9293211948741
Brigada de Delitos Económicos Puerto Montt,"Ramón Munita 536, Puerto Montt",65 -2 77 50 04,-41.4568667922928,-72.9293211948741
Brigada de Delitos Sexuales Puerto Montt,"Ramón Munita 536, Puerto Montt",65 -2 77 50 04,-41.4568667922928,-72.9293211948741
Brigada de Homicidios Puerto Montt,"Ramón Munita 536, Puerto Montt",65 -2 77 50 04,-41.4568667922928,-72.9293211948741
Brigada Investigadora de Robos Puerto Montt,"Ramón Munita 536, Puerto Montt",65 -2 77 50 04,-41.4568667922928,-72.9293211948741
Laboratorio de Criminalística Regional Puerto Montt,"Ramón Munita 536, Puerto Montt",65 -2 77 50 04,-41.4568667922928,-72.9293211948741
Prefectura Provincial Llanquihue,"Ramón Munita 536, Puerto Montt",65 -2 77 50 04,-41.4568667922928,-72.9293211948741
Brigada de Investigación Criminal Puerto Varas,"Vicente Pérez Rosales 018, Puerto Varas",65 -277 52 01,-41.3259736770847,-72.9699111955390
Brigada de Investigación Criminal Osorno,"Barros Arana 1282, Osorno",64 -2 26 96 37,-40.5808664876777,-73.1281611981318
Departamento Migraciones y Policía Internacional Osorno,"Barros Arana 1282, Osorno",64 -261 08 08,-40.5808664876777,-73.1281611981318
Brigada Antinarcóticos y Contra el Crimen Organizado Osorno,"Barros Arana 1282, Osorno",64 -2 23 60 55,-40.5808664876777,-73.1281611981318
Brigada de Delitos Económicos Osorno,"Barros Arana 1282, Osorno",64 -261 08 12,-40.5808664876777,-73.1281611981318
Brigada de Delitos Sexuales Osorno,"Barros Arana 1282, Osorno",569 -4207 52 00,-40.5808664876777,-73.1281611981318
Brigada de Homicidios Osorno,"Barros Arana 1282, Osorno",64 -2 25 38 02,-40.5808664876777,-73.1281611981318
Brigada Investigadora de Robos Osorno,"Barros Arana 1282, Osorno",64 -2 23 36 00,-40.5808664876777,-73.1281611981318
Brigada de Investigación Criminal Castro,"Balmaceda 253, Castro",65-2 77 51 53,-42.4834269604835,-73.7650612085668
Brigada de Investigación Criminal Ancud,"Errázuriz 671, Ancud",65-2 77 51 78,-41.8700526859989,-73.8275341209590
Brigada Investigadora de Delitos Sexuales Ancud,"Errázuriz 671, Ancud",65 -2 77 51 78,-41.8700526859989,-73.8275341209590
Sección Migraciones y Policía Internacional Castro,"Balmaceda 253, Castro",65 -2 63 22 75,-42.4834269604835,-73.7650612085668
Brigada de Investigación Criminal Coyhaique,"Calle Dos 086, Coyhaique",67-258 4756,-45.5711827466382,-72.0684891180770
Brigada Investigadora de Robos Coyhaique,"Calle Dos 086, Coyhaique",67-258 4756,-45.5711827466382,-72.0684891180770
Brigada Investigadora de Delitos Económicos Coyhaique,"Calle Dos 086, Coyhaique",67-258 4756,-45.5711827466382,-72.0684891180770
Brigada Antinarcóticos y Contra el Crimen Organizado Coyhaique,"Calle Dos 086, Coyhaique",67-258 4756,-45.5711827466382,-72.0684891180770
Brigada Investigadora de Delitos Sexuales Coyhaique,"Calle Dos 086, Coyhaique",67-258 47 56,-45.5711827466382,-72.0684891180770
Departamento de Migraciones y Policía Internacional Coyhaique,"Baquedano 511, Coyhaique",67-258 47 19 / 67-258 47 17,-45.5698574661643,-72.0643911807029
Brigada de Homicidios Coyhaique,"Calle Dos 086, Coyhaique",67-258 4756,-45.5711827466382,-72.0684891180770
Brigada de Investigación Criminal Aysén,"Carrera 731, Aysén",67-258 48 33,-45.4063707439379,-72.6969401191066
Departamento de Migraciones y Policía Internacional Aysén,"Carrera 731, Aysén",67-258 48 33,-45.4063707439379,-72.6969401191066
Brigada Investigadora de Delitos contra el Medio Ambiente y Patrimonio Cultural Aysén,"Carrera 731, Aysén",67-258 48 33,-45.4063707439379,-72.6969401191066
Brigada de Investigación Criminal Punta Arenas,"Errázuriz 977, Punta Arenas",61 - 272 17 77,-53.1653587106120,-70.9067111617356
Brigada de Delitos Económicos Punta Arenas,"Errázuriz 977, Punta Arenas",61 - 272 17 33,-53.1653587106120,-70.9067111617356
Brigada Investigadora de Delitos Sexuales Punta Arenas,"Errázuriz 977, Punta Arenas",61 - 272 17 12,-53.1653587106120,-70.9067111617356
Brigada de Homicidios Punta Arenas,"Errázuriz 977, Punta Arenas",61 - 272 17 18,-53.1653587106120,-70.9067111617356
Brigada Investigadora de Robos Punta Arenas,"Errázuriz 977, Punta Arenas",61 - 272 17 38,-53.1653587106120,-70.9067111617356
Brigada Antinarcóticos y Contra el Crimen Organizado Punta Arenas,"Errázuriz 977, Punta Arenas",61 - 272 17 07,-53.1653587106120,-70.9067111617356
Laboratorio de Criminalística Regional Punta Arenas,"Errázuriz 977, Punta Arenas",61 - 272 17 55,-53.1653587106120,-70.9067111617356
Departamento de Migraciones Y Policía Internacional Punta Arenas,"Errázuriz 977, Punta Arenas",61 - 272 17 46,-53.1653587106120,-70.9067111617356
Brigada de Investigación Criminal Puerto Natales,"Bories 408, Puerto Natales",61 - 272 18 33,-51.7256084747234,-72.5070611879557
Departamento de Migraciones Y Policía Internacional Puerto Natales,"Bories 408, Puerto Natales",61 - 272 18 35,-51.7256084747234,-72.5070611879557
